{"type":"FeatureCollection","name":"ne_50m_geography_regions_points","crs":{"type":"name","properties":{"name":"urn:ogc:def:crs:OGC:1.3:CRS84"}},"features":[{"type":"Feature","properties":{"scalerank":2,"featurecla":"waterfall","name":"Niagara Falls","comment":null,"name_alt":null,"lat_y":43.087653,"long_x":-79.044073,"region":"North America","subregion":null,"min_zoom":5,"label":"Niagara Falls","name_ar":"شلالات نياجارا","name_bn":"নায়াগ্রা জলপ্রপাত","name_de":"Niagarafälle","name_en":"Niagara Falls","name_es":"Cataratas del Niágara","name_fr":"chutes du Niagara","name_el":"Καταρράκτες του Νιαγάρα","name_hi":"नायाग्रा जल प्रपात","name_hu":"Niagara-vízesés","name_id":"Niagara","name_it":"cascate del Niagara","name_ja":"ナイアガラの滝","name_ko":"나이아가라 폭포","name_nl":"Niagarawatervallen","name_pl":"Wodospad Niagara","name_pt":"Cataratas do Niágara","name_ru":"Ниагарский водопад","name_sv":"Niagarafallen","name_tr":"Niagara Şelalesi","name_vi":"Thác Niagara","name_zh":"尼亚加拉瀑布","wikidataid":"Q34221","wdid_score":3,"ne_id":1159105019},"bbox":[-79.044118,43.087714,-79.044118,43.087714],"geometry":{"type":"Point","coordinates":[-79.044118,43.087714]}},{"type":"Feature","properties":{"scalerank":2,"featurecla":"waterfall","name":"Salto Angel","comment":null,"name_alt":"Angel Falls","lat_y":5.686836,"long_x":-62.061848,"region":"South America","subregion":null,"min_zoom":5,"label":"Salto Angel","name_ar":"شلالات آنجل","name_bn":"অ্যাঞ্জেল জলপ্রপাত","name_de":"Salto Ángel","name_en":"Angel Falls","name_es":"Salto Ángel","name_fr":"Salto Angel","name_el":"Καταρράκτες Έιντζελ","name_hi":"एन्जिल जलप्रपात","name_hu":"Angel-vízesés","name_id":"Air terjun Angel","name_it":"Salto Angel","name_ja":"エンジェルフォール","name_ko":"앙헬 폭포","name_nl":"Ángelwaterval","name_pl":"Salto Angel","name_pt":"Salto Ángel","name_ru":"Анхель","name_sv":"Angelfallen","name_tr":"Angel Şelalesi","name_vi":"Thác nước Ángel","name_zh":"安赫尔瀑布","wikidataid":"Q80299","wdid_score":5,"ne_id":1159105051},"bbox":[-62.061818,5.686896,-62.061818,5.686896],"geometry":{"type":"Point","coordinates":[-62.061818,5.686896]}},{"type":"Feature","properties":{"scalerank":2,"featurecla":"waterfall","name":"Iguazu Falls","comment":null,"name_alt":null,"lat_y":-25.568265,"long_x":-54.582842,"region":"South America","subregion":null,"min_zoom":5,"label":"Iguazu Falls","name_ar":"شلالات إجوازو","name_bn":"ইগুয়াসু জলপ্রপাত","name_de":"Iguazú-Wasserfälle","name_en":"Iguaçu Falls","name_es":"Cataratas del Iguazú","name_fr":"chutes d'Iguazú","name_el":"Καταρράκτες Ιγκουασού","name_hi":null,"name_hu":"Iguazú-vízesés","name_id":"Air terjun Iguazu","name_it":"cascate dell'Iguazú","name_ja":"イグアスの滝","name_ko":"이구아수 폭포","name_nl":"Watervallen van de Iguaçu","name_pl":"Wodospad Iguazú","name_pt":"Cataratas do Iguaçu","name_ru":"Игуасу","name_sv":"Iguazúfallen","name_tr":"Iguazú Şelalesi","name_vi":"Thác Iguazu","name_zh":"伊瓜苏瀑布","wikidataid":"Q36332","wdid_score":5,"ne_id":1159105053},"bbox":[-54.582997,-25.568292,-54.582997,-25.568292],"geometry":{"type":"Point","coordinates":[-54.582997,-25.568292]}},{"type":"Feature","properties":{"scalerank":3,"featurecla":"cape","name":"Gees Gwardafuy","comment":null,"name_alt":null,"lat_y":11.812855,"long_x":51.235173,"region":"Africa","subregion":null,"min_zoom":5.1,"label":"Gees Gwardafuy","name_ar":null,"name_bn":null,"name_de":"Kap Guardafui","name_en":"Cape Guardafui","name_es":"Cabo Guardafui","name_fr":"Cap Gardafui","name_el":null,"name_hi":null,"name_hu":null,"name_id":null,"name_it":"Capo Guardafui","name_ja":"グアルダフィ岬","name_ko":null,"name_nl":"Cape Guardafui","name_pl":"Gees Gwardafuy","name_pt":"Cabo Guardafui","name_ru":"Гвардафуй","name_sv":"Kap Gardafai","name_tr":null,"name_vi":"Cape Guardafui","name_zh":"瓜達富伊角","wikidataid":"Q1145030","wdid_score":5,"ne_id":1159104885},"bbox":[51.258314,11.822029,51.258314,11.822029],"geometry":{"type":"Point","coordinates":[51.258314,11.822029]}},{"type":"Feature","properties":{"scalerank":3,"featurecla":"waterfall","name":"Victoria Falls","comment":null,"name_alt":null,"lat_y":-17.77079,"long_x":25.460133,"region":"Africa","subregion":null,"min_zoom":5.1,"label":"Victoria Falls","name_ar":"شلالات فيكتوريا","name_bn":"ভিক্টোরিয়া জলপ্রপাত","name_de":"Victoriafälle","name_en":"Victoria Falls","name_es":"Cataratas Victoria","name_fr":"chutes Victoria","name_el":"Καταρράκτες Βικτωρίας","name_hi":"विक्टोरिया जलप्रपात","name_hu":"Viktória-vízesés","name_id":"Air terjun Victoria","name_it":"Cascate Vittoria","name_ja":"ヴィクトリアの滝","name_ko":"빅토리아 폭포","name_nl":"Victoriawatervallen","name_pl":"Wodospady Wiktorii","name_pt":"Cataratas Vitória","name_ru":"Виктория","name_sv":"Victoriafallen","name_tr":"Victoria Şelalesi","name_vi":"Thác Victoria","name_zh":"维多利亚瀑布","wikidataid":"Q43278","wdid_score":3,"ne_id":1159104887},"bbox":[25.852794,-17.928033,25.852794,-17.928033],"geometry":{"type":"Point","coordinates":[25.852794,-17.928033]}},{"type":"Feature","properties":{"scalerank":3,"featurecla":"island","name":"Wright Island","comment":null,"name_alt":null,"lat_y":-50.959168,"long_x":-72.995002,"region":"Antarctica","subregion":null,"min_zoom":5.1,"label":"Wright I.","name_ar":null,"name_bn":null,"name_de":"Wright Island","name_en":"Wright Island","name_es":null,"name_fr":null,"name_el":null,"name_hi":null,"name_hu":null,"name_id":null,"name_it":null,"name_ja":null,"name_ko":null,"name_nl":"Wright Island","name_pl":null,"name_pt":null,"name_ru":null,"name_sv":"Wright Island","name_tr":null,"name_vi":null,"name_zh":"萊特島","wikidataid":"Q6980542","wdid_score":5,"ne_id":1159104901},"bbox":[-116.892629,-74.066705,-116.892629,-74.066705],"geometry":{"type":"Point","coordinates":[-116.892629,-74.066705]}},{"type":"Feature","properties":{"scalerank":3,"featurecla":"island","name":"Grant Island","comment":null,"name_alt":null,"lat_y":-50.959168,"long_x":-72.995002,"region":"Antarctica","subregion":null,"min_zoom":5.1,"label":"Grant I.","name_ar":"جزيرة غرانت","name_bn":null,"name_de":"Grant-Insel","name_en":"Grant Island","name_es":"Isla Grant","name_fr":"île Grant","name_el":null,"name_hi":null,"name_hu":null,"name_id":null,"name_it":null,"name_ja":null,"name_ko":null,"name_nl":"Grant Island","name_pl":null,"name_pt":"Ilha Grant","name_ru":null,"name_sv":"Grant Island","name_tr":null,"name_vi":null,"name_zh":"格蘭特島","wikidataid":"Q1543171","wdid_score":5,"ne_id":1159104903},"bbox":[-131.485402,-74.482721,-131.485402,-74.482721],"geometry":{"type":"Point","coordinates":[-131.485402,-74.482721]}},{"type":"Feature","properties":{"scalerank":3,"featurecla":"island","name":"Newman Island","comment":null,"name_alt":null,"lat_y":-50.959168,"long_x":-72.995002,"region":"Antarctica","subregion":null,"min_zoom":5.1,"label":"Newman I.","name_ar":null,"name_bn":null,"name_de":null,"name_en":"Newman Island","name_es":null,"name_fr":null,"name_el":null,"name_hi":null,"name_hu":null,"name_id":null,"name_it":null,"name_ja":null,"name_ko":null,"name_nl":"Newman Island","name_pl":null,"name_pt":null,"name_ru":null,"name_sv":"Newman Island","name_tr":null,"name_vi":null,"name_zh":"維曼島","wikidataid":"Q6272638","wdid_score":5,"ne_id":1159104905},"bbox":[-145.686818,-75.591851,-145.686818,-75.591851],"geometry":{"type":"Point","coordinates":[-145.686818,-75.591851]}},{"type":"Feature","properties":{"scalerank":3,"featurecla":"island","name":"Dean Island","comment":null,"name_alt":null,"lat_y":-50.959168,"long_x":-72.995002,"region":"Antarctica","subregion":null,"min_zoom":5.1,"label":"Dean I.","name_ar":"جزيرة دين","name_bn":null,"name_de":"Dean Insel","name_en":"Dean Island","name_es":"Isla Dean","name_fr":null,"name_el":null,"name_hi":null,"name_hu":null,"name_id":null,"name_it":null,"name_ja":null,"name_ko":null,"name_nl":"Dean Island","name_pl":null,"name_pt":"Ilha dean","name_ru":null,"name_sv":"Dean Island","name_tr":null,"name_vi":null,"name_zh":"迪安島","wikidataid":"Q559842","wdid_score":5,"ne_id":1159104907},"bbox":[-127.634389,-74.500665,-127.634389,-74.500665],"geometry":{"type":"Point","coordinates":[-127.634389,-74.500665]}},{"type":"Feature","properties":{"scalerank":3,"featurecla":"cape","name":"Cape Canaveral","comment":null,"name_alt":null,"lat_y":28.483713,"long_x":-80.534941,"region":"North America","subregion":null,"min_zoom":5.1,"label":"Cape Canaveral","name_ar":"رأس كانافيرال","name_bn":null,"name_de":"Cape Canaveral","name_en":"Cape Canaveral","name_es":"Cabo Cañaveral","name_fr":"Cap Canaveral","name_el":"Ακρωτήριο Κανάβεραλ","name_hi":null,"name_hu":"Cape Canaveral","name_id":"Cape Canaveral","name_it":"Cape Canaveral","name_ja":"ケープ・カナベラル","name_ko":"케이프커내버럴","name_nl":"Cape Canaveral","name_pl":"Canaveral","name_pt":"Cabo Canaveral","name_ru":"Канаверал","name_sv":"Cape Canaveral","name_tr":"Cape Canaveral","name_vi":null,"name_zh":"卡纳维拉尔角","wikidataid":"Q193401","wdid_score":3,"ne_id":1159105007},"bbox":[-80.536256,28.473057,-80.536256,28.473057],"geometry":{"type":"Point","coordinates":[-80.536256,28.473057]}},{"type":"Feature","properties":{"scalerank":3,"featurecla":"cape","name":"Cape Mendocino","comment":null,"name_alt":null,"lat_y":40.350222,"long_x":-124.323474,"region":"North America","subregion":null,"min_zoom":5.1,"label":"Cape Mendocino","name_ar":null,"name_bn":null,"name_de":null,"name_en":"Cape Mendocino","name_es":"Cabo Mendocino","name_fr":"Cap Mendocino","name_el":null,"name_hi":null,"name_hu":null,"name_id":"Tanjung Mendocino","name_it":"Capo Mendocino","name_ja":null,"name_ko":null,"name_nl":"Cape Mendocino","name_pl":null,"name_pt":"Cabo Mendocino","name_ru":null,"name_sv":null,"name_tr":null,"name_vi":null,"name_zh":null,"wikidataid":"Q780339","wdid_score":3,"ne_id":1159105009},"bbox":[-124.392017,40.442221,-124.392017,40.442221],"geometry":{"type":"Point","coordinates":[-124.392017,40.442221]}},{"type":"Feature","properties":{"scalerank":3,"featurecla":"cape","name":"Cabo San Lucas","comment":null,"name_alt":null,"lat_y":22.887711,"long_x":-109.969843,"region":"North America","subregion":null,"min_zoom":5.1,"label":null,"name_ar":"كابو سان لوكاس","name_bn":"কাবু সান লুকাস","name_de":"Cabo San Lucas","name_en":"Cabo San Lucas","name_es":"Cabo San Lucas","name_fr":"Cabo San Lucas","name_el":"Κάβο Σαν Λούκας","name_hi":"कबो सैन लुकस","name_hu":"Cabo San Lucas","name_id":"Cabo San Lucas","name_it":"Cabo San Lucas","name_ja":"サンルーカス岬","name_ko":"카보산루카스","name_nl":"Cabo San Lucas","name_pl":"Cabo San Lucas","name_pt":"Cabo San Lucas","name_ru":"Кабо-Сан-Лукас","name_sv":"Cabo San Lucas","name_tr":"Cabo San Lucas","name_vi":"Cabo San Lucas","name_zh":"卡布聖盧卡斯","wikidataid":"Q1020776","wdid_score":2,"ne_id":1159105011},"bbox":[-109.969838,22.887763,-109.969838,22.887763],"geometry":{"type":"Point","coordinates":[-109.969838,22.887763]}},{"type":"Feature","properties":{"scalerank":3,"featurecla":"cape","name":"Cape Churchill","comment":null,"name_alt":null,"lat_y":58.752014,"long_x":-93.182023,"region":"North America","subregion":null,"min_zoom":5.1,"label":null,"name_ar":null,"name_bn":null,"name_de":null,"name_en":null,"name_es":null,"name_fr":null,"name_el":null,"name_hi":null,"name_hu":null,"name_id":null,"name_it":null,"name_ja":null,"name_ko":null,"name_nl":null,"name_pl":null,"name_pt":null,"name_ru":null,"name_sv":null,"name_tr":null,"name_vi":null,"name_zh":null,"wikidataid":null,"wdid_score":0,"ne_id":1159105013},"bbox":[-93.182118,58.752082,-93.182118,58.752082],"geometry":{"type":"Point","coordinates":[-93.182118,58.752082]}},{"type":"Feature","properties":{"scalerank":3,"featurecla":"cape","name":"Cape Cod","comment":null,"name_alt":null,"lat_y":41.734867,"long_x":-69.964865,"region":"North America","subregion":null,"min_zoom":5.1,"label":"Cape Cod","name_ar":null,"name_bn":null,"name_de":"Cape Cod","name_en":"Cape Cod","name_es":"Cabo Cod","name_fr":"cap Cod","name_el":"Ακρωτήριο Κοντ","name_hi":null,"name_hu":"Cape Cod","name_id":null,"name_it":"Capo Cod","name_ja":"ケープコッド","name_ko":"케이프코드","name_nl":"Cape Cod","name_pl":"Cape Cod","name_pt":"Cabo Cod","name_ru":"Кейп-Код","name_sv":"Cape Cod","name_tr":"Cod Burnu","name_vi":null,"name_zh":"鳕鱼角","wikidataid":"Q49152","wdid_score":3,"ne_id":1159105015},"bbox":[-70.036878,41.991459,-70.036878,41.991459],"geometry":{"type":"Point","coordinates":[-70.036878,41.991459]}},{"type":"Feature","properties":{"scalerank":3,"featurecla":"cape","name":"Cape May","comment":null,"name_alt":null,"lat_y":37.2017,"long_x":-75.926791,"region":"North America","subregion":null,"min_zoom":5.1,"label":"Cape May","name_ar":null,"name_bn":null,"name_de":null,"name_en":"Cape May","name_es":null,"name_fr":null,"name_el":null,"name_hi":null,"name_hu":null,"name_id":null,"name_it":null,"name_ja":"メイ岬","name_ko":null,"name_nl":null,"name_pl":null,"name_pt":null,"name_ru":"Мэй","name_sv":null,"name_tr":null,"name_vi":null,"name_zh":null,"wikidataid":"Q2065437","wdid_score":3,"ne_id":1159105017},"bbox":[-74.951219,38.929696,-74.951219,38.929696],"geometry":{"type":"Point","coordinates":[-74.951219,38.929696]}},{"type":"Feature","properties":{"scalerank":3,"featurecla":"cape","name":"Cabo de Hornos","comment":null,"name_alt":"Cape Horn","lat_y":-55.862824,"long_x":-67.169425,"region":"South America","subregion":null,"min_zoom":5.1,"label":"Cabo de Hornos","name_ar":"كايب هورن","name_bn":"কেপ হর্ন","name_de":"Kap Hoorn","name_en":"Cape Horn","name_es":"Cabo de Hornos","name_fr":"Cap Horn","name_el":"Ακρωτήριο Χορν","name_hi":"हॉर्न अंतरीप","name_hu":"Horn-fok","name_id":"Tanjung Horn","name_it":"Capo Horn","name_ja":"ホーン岬","name_ko":"혼 곶","name_nl":"Kaap Hoorn","name_pl":"Horn","name_pt":"Cabo Horn","name_ru":"Горн","name_sv":"Kap Horn","name_tr":"Horn Burnu","name_vi":"Cape Horn","name_zh":"合恩角","wikidataid":"Q4078","wdid_score":5,"ne_id":1159105049},"bbox":[-67.169423,-55.862848,-67.169423,-55.862848],"geometry":{"type":"Point","coordinates":[-67.169423,-55.862848]}},{"type":"Feature","properties":{"scalerank":3,"featurecla":"cape","name":"Cape of Good Hope","comment":null,"name_alt":null,"lat_y":-34.307311,"long_x":18.441206,"region":"Africa","subregion":null,"min_zoom":5.1,"label":"Cape of Good Hope","name_ar":"رأس الرجاء الصالح","name_bn":null,"name_de":"Kap der Guten Hoffnung","name_en":"Cape of Good Hope","name_es":"Cabo de Buena Esperanza","name_fr":"Cap de Bonne-Espérance","name_el":"Ακρωτήριο της Καλής Ελπίδος","name_hi":"केप ऑफ़ गुड होप","name_hu":"Jóreménység foka","name_id":"Tanjung Harapan","name_it":"Capo di Buona Speranza","name_ja":"喜望峰","name_ko":"희망봉","name_nl":"Kaap de Goede Hoop","name_pl":"Przylądek Dobrej Nadziei","name_pt":"Cabo da Boa Esperança","name_ru":"Мыс Доброй Надежды","name_sv":"Godahoppsudden","name_tr":"Ümit Burnu","name_vi":"Mũi Hảo Vọng","name_zh":"好望角","wikidataid":"Q4092","wdid_score":3,"ne_id":1159105165},"bbox":[18.441295,-34.307184,18.441295,-34.307184],"geometry":{"type":"Point","coordinates":[18.441295,-34.307184]}},{"type":"Feature","properties":{"scalerank":3,"featurecla":"cape","name":"Cape Palmas","comment":null,"name_alt":null,"lat_y":4.373924,"long_x":-7.457356,"region":"Africa","subregion":null,"min_zoom":5.1,"label":"Cape Palmas","name_ar":null,"name_bn":null,"name_de":"Cape Palmas","name_en":"Cape Palmas","name_es":"Cabo Palmas","name_fr":"Cap des Palmes","name_el":null,"name_hi":null,"name_hu":"Pálma-fok","name_id":null,"name_it":"Capo Palmas","name_ja":"パルマス岬","name_ko":null,"name_nl":"Cape Palmas","name_pl":null,"name_pt":"Cabo Palmas","name_ru":"Пальмас","name_sv":null,"name_tr":null,"name_vi":null,"name_zh":null,"wikidataid":"Q1034489","wdid_score":3,"ne_id":1159105169},"bbox":[-7.457387,4.373969,-7.457387,4.373969],"geometry":{"type":"Point","coordinates":[-7.457387,4.373969]}},{"type":"Feature","properties":{"scalerank":3,"featurecla":"cape","name":"Cape Verde","comment":null,"name_alt":null,"lat_y":14.732312,"long_x":-17.471776,"region":"Africa","subregion":null,"min_zoom":5.1,"label":"Cape Verde","name_ar":"شبه جزيرة الرأس الأخضر","name_bn":null,"name_de":"Cabo Verde","name_en":"Cap-Vert","name_es":"Cabo Verde","name_fr":"Presqu'île du Cap-Vert","name_el":null,"name_hi":null,"name_hu":"Zöld-fok","name_id":null,"name_it":"Penisola di Capo Verde","name_ja":"ヴェルデ岬","name_ko":"베르데 곶","name_nl":"Kaap Verde","name_pl":"Przylądek Zielony","name_pt":"Cabo Verde","name_ru":"Зелёный Мыс","name_sv":"Kap Verdehalvön","name_tr":"Cap-Vert","name_vi":null,"name_zh":"佛得角半島","wikidataid":"Q216889","wdid_score":5,"ne_id":1159105171},"bbox":[-17.47173,14.732489,-17.47173,14.732489],"geometry":{"type":"Point","coordinates":[-17.47173,14.732489]}},{"type":"Feature","properties":{"scalerank":3,"featurecla":"cape","name":"Cap Bon","comment":null,"name_alt":null,"lat_y":37.073954,"long_x":11.024061,"region":"Africa","subregion":null,"min_zoom":5.1,"label":"Cap Bon","name_ar":"الرأس الطيب","name_bn":null,"name_de":"Kap Bon","name_en":"Cap Bon","name_es":"Cabo Bon","name_fr":"cap Bon","name_el":null,"name_hi":null,"name_hu":null,"name_id":null,"name_it":"Capo Bon","name_ja":"ボン岬半島","name_ko":null,"name_nl":"Kaap Bon","name_pl":"Al-Watan al-Kibli","name_pt":"Cabo Bon","name_ru":"Бон","name_sv":"Kap Bon","name_tr":null,"name_vi":null,"name_zh":"卡本半岛","wikidataid":"Q849879","wdid_score":3,"ne_id":1159105173},"bbox":[11.024181,37.073981,11.024181,37.073981],"geometry":{"type":"Point","coordinates":[11.024181,37.073981]}},{"type":"Feature","properties":{"scalerank":3,"featurecla":"pole","name":"Oceanic pole of inaccessibility","comment":null,"name_alt":null,"lat_y":-48.865032,"long_x":-123.401986,"region":"Seven seas (open ocean)","subregion":"South Pacific Ocean","min_zoom":5.1,"label":null,"name_ar":null,"name_bn":null,"name_de":"Pol der Unzugänglichkeit","name_en":"pole of inaccessibility","name_es":"Polo de inaccesibilidad","name_fr":"pôle d'inaccessibilité","name_el":null,"name_hi":null,"name_hu":"Némó-pont","name_id":"Titik terpencil","name_it":"Polo dell'inaccessibilità","name_ja":"到達不能極","name_ko":"도달불능극","name_nl":"pool van ontoegankelijkheid","name_pl":"Biegun niedostępności","name_pt":"Polo de inacessibilidade","name_ru":"Полюс недоступности","name_sv":"Otillgänglighetspol","name_tr":null,"name_vi":"Cực bất khả tiếp cận","name_zh":"難抵極","wikidataid":"Q752003","wdid_score":1,"ne_id":1159105175},"bbox":[-123.402028,-48.865045,-123.402028,-48.865045],"geometry":{"type":"Point","coordinates":[-123.402028,-48.865045]}},{"type":"Feature","properties":{"scalerank":3,"featurecla":"pole","name":"South Magnetic Pole 2005 (est)","comment":null,"name_alt":null,"lat_y":-48.865032,"long_x":-123.401986,"region":"Antarctica","subregion":"Southern Ocean","min_zoom":5.1,"label":null,"name_ar":null,"name_bn":null,"name_de":"magnetischer Südpol","name_en":"South Magnetic Pole","name_es":null,"name_fr":"Pôle Sud magnétique","name_el":null,"name_hi":null,"name_hu":null,"name_id":null,"name_it":"Polo Sud Magnetico","name_ja":"南磁極","name_ko":"자남극","name_nl":null,"name_pl":null,"name_pt":"Polo sul magnético","name_ru":"южный магнитный полюс","name_sv":"Magnetiska sydpolen","name_tr":null,"name_vi":"Cực Nam từ","name_zh":"地磁南极","wikidataid":"Q1043682","wdid_score":5,"ne_id":1159105177},"bbox":[137.854259,-64.518243,137.854259,-64.518243],"geometry":{"type":"Point","coordinates":[137.854259,-64.518243]}},{"type":"Feature","properties":{"scalerank":3,"featurecla":"pole","name":"North Magnetic Pole 2005 (est)","comment":null,"name_alt":null,"lat_y":-48.865032,"long_x":-123.401986,"region":"Seven seas (open ocean)","subregion":"Arctic Ocean","min_zoom":5.1,"label":null,"name_ar":"قطب شمالي مغناطيسي","name_bn":null,"name_de":"magnetischer Nordpol","name_en":"North Magnetic Pole","name_es":"Polo Norte magnético","name_fr":"Pôle Nord magnétique","name_el":"Μαγνητικός Βόρειος Πόλος","name_hi":null,"name_hu":null,"name_id":null,"name_it":null,"name_ja":"北磁極","name_ko":"자북극","name_nl":"magnetische noordpool","name_pl":null,"name_pt":"Polo norte magnético","name_ru":"Северный магнитный полюс","name_sv":"Magnetiska nordpolen","name_tr":"Manyetik Kuzey Kutbu","name_vi":"Cực Bắc từ","name_zh":"地磁北极","wikidataid":"Q842763","wdid_score":5,"ne_id":1159105179},"bbox":[-114.40569,82.710089,-114.40569,82.710089],"geometry":{"type":"Point","coordinates":[-114.40569,82.710089]}},{"type":"Feature","properties":{"scalerank":4,"featurecla":"cape","name":"Lands End","comment":null,"name_alt":null,"lat_y":50.069677,"long_x":-5.668629,"region":"Europe","subregion":"British Isles","min_zoom":5.7,"label":"Lands End","name_ar":null,"name_bn":null,"name_de":null,"name_en":null,"name_es":null,"name_fr":null,"name_el":null,"name_hi":null,"name_hu":null,"name_id":null,"name_it":null,"name_ja":null,"name_ko":null,"name_nl":null,"name_pl":null,"name_pt":null,"name_ru":null,"name_sv":"Land's End","name_tr":null,"name_vi":null,"name_zh":null,"wikidataid":"Q24640353","wdid_score":5,"ne_id":1159104689},"bbox":[-5.66863,50.069709,-5.66863,50.069709],"geometry":{"type":"Point","coordinates":[-5.66863,50.069709]}},{"type":"Feature","properties":{"scalerank":4,"featurecla":"cape","name":"Cape York","comment":null,"name_alt":null,"lat_y":76.218919,"long_x":-68.218612,"region":"North America","subregion":"Greenland","min_zoom":5.7,"label":"Cape York","name_ar":null,"name_bn":null,"name_de":"Kap York","name_en":"Cape York","name_es":"Cabo York","name_fr":"Cap York","name_el":null,"name_hi":null,"name_hu":null,"name_id":null,"name_it":"Capo York","name_ja":"ヨーク岬","name_ko":null,"name_nl":"Cape York","name_pl":"Kap York","name_pt":null,"name_ru":"Йорк","name_sv":"Kap York","name_tr":null,"name_vi":null,"name_zh":null,"wikidataid":"Q1636266","wdid_score":2,"ne_id":1159104697},"bbox":[-68.218617,76.218878,-68.218617,76.218878],"geometry":{"type":"Point","coordinates":[-68.218617,76.218878]}},{"type":"Feature","properties":{"scalerank":4,"featurecla":"cape","name":"Nunap Isua","comment":null,"name_alt":"Cape Farewell","lat_y":59.862583,"long_x":-43.90088,"region":"North America","subregion":"Greenland","min_zoom":5.7,"label":null,"name_ar":null,"name_bn":null,"name_de":"Kap Farvel","name_en":"Cape Farewell","name_es":"Cabo Farewell","name_fr":"Cap Farvel","name_el":"Ακρωτήριο Φάρβελ","name_hi":null,"name_hu":"Farvel-fok","name_id":null,"name_it":"Capo Farvel","name_ja":null,"name_ko":null,"name_nl":"Kaap Vaarwel","name_pl":"Farvel","name_pt":"Cabo Farvel","name_ru":"Фарвель","name_sv":"Kap Farvel","name_tr":null,"name_vi":null,"name_zh":"法韦尔角","wikidataid":"Q128097","wdid_score":5,"ne_id":1159104701},"bbox":[-43.900807,59.862677,-43.900807,59.862677],"geometry":{"type":"Point","coordinates":[-43.900807,59.862677]}},{"type":"Feature","properties":{"scalerank":4,"featurecla":"cape","name":"Cape Vohimena","comment":null,"name_alt":null,"lat_y":-25.546355,"long_x":45.158683,"region":"Africa","subregion":"Indian Ocean","min_zoom":5.7,"label":null,"name_ar":null,"name_bn":null,"name_de":"Naturreservat Cap Sainte Marie","name_en":"Cape Saint Marie","name_es":null,"name_fr":"Cap Sainte-Marie","name_el":null,"name_hi":null,"name_hu":null,"name_id":null,"name_it":null,"name_ja":null,"name_ko":null,"name_nl":"Cape Saint Marie","name_pl":null,"name_pt":null,"name_ru":null,"name_sv":null,"name_tr":null,"name_vi":null,"name_zh":null,"wikidataid":"Q1352197","wdid_score":1,"ne_id":1159104711},"bbox":[45.158702,-25.546319,45.158702,-25.546319],"geometry":{"type":"Point","coordinates":[45.158702,-25.546319]}},{"type":"Feature","properties":{"scalerank":4,"featurecla":"island","name":"Vavau","comment":null,"name_alt":null,"lat_y":-18.590062,"long_x":-173.976769,"region":"Oceania","subregion":"Polynesia","min_zoom":5.7,"label":"Vavau","name_ar":null,"name_bn":null,"name_de":null,"name_en":"Vavaʻu","name_es":null,"name_fr":null,"name_el":null,"name_hi":null,"name_hu":null,"name_id":null,"name_it":null,"name_ja":null,"name_ko":null,"name_nl":"Vavaʻu","name_pl":null,"name_pt":null,"name_ru":null,"name_sv":null,"name_tr":null,"name_vi":null,"name_zh":null,"wikidataid":"Q20456736","wdid_score":5,"ne_id":1159104833},"bbox":[-173.976735,-18.59002,-173.976735,-18.59002],"geometry":{"type":"Point","coordinates":[-173.976735,-18.59002]}},{"type":"Feature","properties":{"scalerank":4,"featurecla":"island","name":"I. de Pascua","comment":null,"name_alt":"Easter I.","lat_y":-27.102117,"long_x":-109.367953,"region":"Oceania","subregion":"Polynesia","min_zoom":5.7,"label":null,"name_ar":"جزيرة القيامة","name_bn":"ইস্টার দ্বীপ","name_de":"Osterinsel","name_en":"Easter Island","name_es":"Isla de Pascua","name_fr":"île de Pâques","name_el":"Νησί του Πάσχα","name_hi":"ईस्टर द्वीप","name_hu":"Húsvét-sziget","name_id":"Pulau Paskah","name_it":"Isola di Pasqua","name_ja":"イースター島","name_ko":"이스터 섬","name_nl":"Paaseiland","name_pl":"Wyspa Wielkanocna","name_pt":"Ilha de Páscoa","name_ru":"Остров Пасхи","name_sv":"Påskön","name_tr":"Paskalya Adası","name_vi":"Đảo Phục Sinh","name_zh":"復活節島","wikidataid":"Q14452","wdid_score":5,"ne_id":1159104835},"bbox":[-109.367909,-27.102227,-109.367909,-27.102227],"geometry":{"type":"Point","coordinates":[-109.367909,-27.102227]}},{"type":"Feature","properties":{"scalerank":4,"featurecla":"cape","name":"Cape Agulhas","comment":null,"name_alt":null,"lat_y":-34.801182,"long_x":19.993472,"region":"Africa","subregion":null,"min_zoom":5.7,"label":"Cape Agulhas","name_ar":"رأس أقولاس","name_bn":null,"name_de":"Kap Agulhas","name_en":"Cape Agulhas","name_es":"Cabo de las Agujas","name_fr":"Cap des Aiguilles","name_el":null,"name_hi":"एगुलस अन्तरीप","name_hu":null,"name_id":"Tanjung Agulhas","name_it":"Cape Agulhas","name_ja":"アガラス岬","name_ko":"아굴라스 곶","name_nl":"Kaap Agulhas","name_pl":"Przylądek Igielny","name_pt":"Cabo das Agulhas","name_ru":"Игольный","name_sv":"Agulhas","name_tr":"Agulhas Burnu","name_vi":null,"name_zh":"厄加勒斯角","wikidataid":"Q4085","wdid_score":3,"ne_id":1159104883},"bbox":[19.993419,-34.80108,19.993419,-34.80108],"geometry":{"type":"Point","coordinates":[19.993419,-34.80108]}},{"type":"Feature","properties":{"scalerank":4,"featurecla":"plain","name":"Plain of Jars","comment":null,"name_alt":null,"lat_y":20.550709,"long_x":101.890532,"region":"Asia","subregion":null,"min_zoom":5.7,"label":null,"name_ar":null,"name_bn":null,"name_de":"Ebene der Tonkrüge","name_en":"Plain of Jars","name_es":"Llanura de las Jarras","name_fr":"Plaine des Jarres","name_el":null,"name_hi":null,"name_hu":null,"name_id":null,"name_it":"Piana delle giare","name_ja":"ジャール平原","name_ko":"단지평원","name_nl":"Vlakte der Kruiken","name_pl":"Równina Dzbanów","name_pt":null,"name_ru":"Долина Кувшинов","name_sv":"Krukslätten","name_tr":null,"name_vi":"Cánh đồng Chum","name_zh":"查爾平原","wikidataid":"Q870258","wdid_score":5,"ne_id":1159104967},"bbox":[101.890636,20.55091,101.890636,20.55091],"geometry":{"type":"Point","coordinates":[101.890636,20.55091]}},{"type":"Feature","properties":{"scalerank":4,"featurecla":"cape","name":"Cabo Corrientes","comment":null,"name_alt":null,"lat_y":20.409471,"long_x":-105.683581,"region":"North America","subregion":null,"min_zoom":5.7,"label":"Cabo Corrientes","name_ar":null,"name_bn":null,"name_de":null,"name_en":"Cabo Corrientes","name_es":"Cabo Corrientes","name_fr":"Cabo Corrientes","name_el":null,"name_hi":null,"name_hu":"Corrientes-fok","name_id":null,"name_it":null,"name_ja":null,"name_ko":null,"name_nl":"Cabo Corrientes","name_pl":null,"name_pt":"Cabo Corrientes","name_ru":null,"name_sv":null,"name_tr":"Corrientes Burnu","name_vi":"Cabo Corrientes","name_zh":null,"wikidataid":"Q2932434","wdid_score":3,"ne_id":1159104991},"bbox":[-105.677959,20.420365,-105.677959,20.420365],"geometry":{"type":"Point","coordinates":[-105.677959,20.420365]}},{"type":"Feature","properties":{"scalerank":4,"featurecla":"cape","name":"Pt. Eugenia","comment":null,"name_alt":null,"lat_y":27.861925,"long_x":-115.07629,"region":"North America","subregion":null,"min_zoom":5.7,"label":"Pt. Eugenia","name_ar":null,"name_bn":null,"name_de":null,"name_en":null,"name_es":null,"name_fr":null,"name_el":null,"name_hi":null,"name_hu":null,"name_id":null,"name_it":null,"name_ja":null,"name_ko":null,"name_nl":null,"name_pl":null,"name_pt":null,"name_ru":null,"name_sv":null,"name_tr":null,"name_vi":null,"name_zh":null,"wikidataid":null,"wdid_score":0,"ne_id":1159104993},"bbox":[-115.046239,27.842887,-115.046239,27.842887],"geometry":{"type":"Point","coordinates":[-115.046239,27.842887]}},{"type":"Feature","properties":{"scalerank":4,"featurecla":"cape","name":"Point Conception","comment":null,"name_alt":null,"lat_y":34.582313,"long_x":-120.659016,"region":"North America","subregion":null,"min_zoom":5.7,"label":null,"name_ar":null,"name_bn":null,"name_de":null,"name_en":"Point Conception","name_es":"Punta Concepción","name_fr":"Point Conception","name_el":null,"name_hi":null,"name_hu":null,"name_id":null,"name_it":null,"name_ja":"ポイント・コンセプション","name_ko":null,"name_nl":null,"name_pl":null,"name_pt":"Point Conception","name_ru":null,"name_sv":null,"name_tr":null,"name_vi":null,"name_zh":"康塞普申角","wikidataid":"Q3307973","wdid_score":5,"ne_id":1159104995},"bbox":[-120.4636,34.460276,-120.4636,34.460276],"geometry":{"type":"Point","coordinates":[-120.4636,34.460276]}},{"type":"Feature","properties":{"scalerank":4,"featurecla":"cape","name":"Cape Hatteras","comment":null,"name_alt":null,"lat_y":35.437762,"long_x":-75.450543,"region":"North America","subregion":null,"min_zoom":5.7,"label":"Cape Hatteras","name_ar":null,"name_bn":null,"name_de":"Cape Hatteras","name_en":"Cape Hatteras","name_es":"Cabo Hatteras","name_fr":"Cap Hatteras","name_el":null,"name_hi":null,"name_hu":"Cape Hatteras","name_id":null,"name_it":"Capo Hatteras","name_ja":"ハッテラス岬","name_ko":null,"name_nl":"Cape Hatteras","name_pl":"Wikipedystka:Allegria/Przylądek Hatteras","name_pt":"Cabo Hatteras","name_ru":"Хаттерас","name_sv":null,"name_tr":null,"name_vi":null,"name_zh":"哈特拉斯角","wikidataid":"Q978032","wdid_score":3,"ne_id":1159104997},"bbox":[-75.54033,35.244753,-75.54033,35.244753],"geometry":{"type":"Point","coordinates":[-75.54033,35.244753]}},{"type":"Feature","properties":{"scalerank":4,"featurecla":"cape","name":"Cape Sable","comment":null,"name_alt":null,"lat_y":25.124896,"long_x":-81.090442,"region":"North America","subregion":null,"min_zoom":5.7,"label":"Cape Sable","name_ar":null,"name_bn":null,"name_de":null,"name_en":"Cape Sable","name_es":"Cabo Sable","name_fr":"Cap Sable","name_el":null,"name_hi":null,"name_hu":null,"name_id":null,"name_it":null,"name_ja":"サブレ岬","name_ko":null,"name_nl":null,"name_pl":"Cape Sable","name_pt":"Cabo Sable","name_ru":null,"name_sv":null,"name_tr":null,"name_vi":null,"name_zh":"沙布耳角","wikidataid":"Q2937102","wdid_score":3,"ne_id":1159104999},"bbox":[-81.090443,25.124762,-81.090443,25.124762],"geometry":{"type":"Point","coordinates":[-81.090443,25.124762]}},{"type":"Feature","properties":{"scalerank":4,"featurecla":"cape","name":"Cape Hope","comment":null,"name_alt":null,"lat_y":68.35638,"long_x":-166.815582,"region":"North America","subregion":null,"min_zoom":5.7,"label":"Cape Hope","name_ar":null,"name_bn":null,"name_de":null,"name_en":"Point Hope","name_es":null,"name_fr":null,"name_el":null,"name_hi":null,"name_hu":null,"name_id":null,"name_it":null,"name_ja":"ホープ岬","name_ko":null,"name_nl":null,"name_pl":null,"name_pt":"Point Hope","name_ru":null,"name_sv":null,"name_tr":null,"name_vi":null,"name_zh":null,"wikidataid":"Q7208042","wdid_score":5,"ne_id":1159105001},"bbox":[-166.813213,68.353802,-166.813213,68.353802],"geometry":{"type":"Point","coordinates":[-166.813213,68.353802]}},{"type":"Feature","properties":{"scalerank":4,"featurecla":"cape","name":"Point Barrow","comment":null,"name_alt":null,"lat_y":71.372637,"long_x":-156.615894,"region":"North America","subregion":null,"min_zoom":5.7,"label":"Point Barrow","name_ar":null,"name_bn":"ব্যারো বিন্দু","name_de":"Point Barrow","name_en":"Point Barrow","name_es":"Punta Barrow","name_fr":"Point Barrow","name_el":null,"name_hi":null,"name_hu":null,"name_id":null,"name_it":"Punta Barrow","name_ja":"ポイント・バロー","name_ko":"배로 곶","name_nl":"Point Barrow","name_pl":"Point Barrow","name_pt":"Point Barrow","name_ru":"Барроу","name_sv":"Point Barrow","name_tr":"Point Barrow","name_vi":null,"name_zh":"巴罗角","wikidataid":"Q1343019","wdid_score":3,"ne_id":1159105003},"bbox":[-156.471949,71.405891,-156.471949,71.405891],"geometry":{"type":"Point","coordinates":[-156.471949,71.405891]}},{"type":"Feature","properties":{"scalerank":4,"featurecla":"cape","name":"Punta Negra","comment":null,"name_alt":null,"lat_y":-5.948875,"long_x":-81.108252,"region":"South America","subregion":null,"min_zoom":5.7,"label":null,"name_ar":null,"name_bn":null,"name_de":"Punta Negra","name_en":"Punta Negra","name_es":"Punta Negra","name_fr":"Punta Negra","name_el":null,"name_hi":null,"name_hu":null,"name_id":null,"name_it":null,"name_ja":null,"name_ko":null,"name_nl":"Punta Negra","name_pl":null,"name_pt":null,"name_ru":null,"name_sv":null,"name_tr":null,"name_vi":null,"name_zh":null,"wikidataid":"Q987098","wdid_score":5,"ne_id":1159105045},"bbox":[-81.108327,-5.948663,-81.108327,-5.948663],"geometry":{"type":"Point","coordinates":[-81.108327,-5.948663]}},{"type":"Feature","properties":{"scalerank":4,"featurecla":"cape","name":"Punta Lavapié","comment":null,"name_alt":null,"lat_y":-37.262867,"long_x":-73.606377,"region":"South America","subregion":null,"min_zoom":5.7,"label":null,"name_ar":null,"name_bn":null,"name_de":null,"name_en":null,"name_es":null,"name_fr":null,"name_el":null,"name_hi":null,"name_hu":null,"name_id":null,"name_it":null,"name_ja":null,"name_ko":null,"name_nl":null,"name_pl":null,"name_pt":null,"name_ru":null,"name_sv":null,"name_tr":null,"name_vi":null,"name_zh":null,"wikidataid":null,"wdid_score":0,"ne_id":1159105047},"bbox":[-73.603044,-37.1712,-73.603044,-37.1712],"geometry":{"type":"Point","coordinates":[-73.603044,-37.1712]}},{"type":"Feature","properties":{"scalerank":4,"featurecla":"cape","name":"Punta Galera","comment":null,"name_alt":null,"lat_y":0.731221,"long_x":-80.062205,"region":"South America","subregion":null,"min_zoom":5.7,"label":null,"name_ar":null,"name_bn":null,"name_de":null,"name_en":null,"name_es":null,"name_fr":null,"name_el":null,"name_hi":null,"name_hu":null,"name_id":null,"name_it":null,"name_ja":null,"name_ko":null,"name_nl":null,"name_pl":null,"name_pt":null,"name_ru":null,"name_sv":null,"name_tr":null,"name_vi":null,"name_zh":null,"wikidataid":null,"wdid_score":0,"ne_id":1159105157},"bbox":[-80.062123,0.731208,-80.062123,0.731208],"geometry":{"type":"Point","coordinates":[-80.062123,0.731208]}},{"type":"Feature","properties":{"scalerank":4,"featurecla":"cape","name":"Cap Lopez","comment":null,"name_alt":null,"lat_y":-0.604761,"long_x":8.726423,"region":"Africa","subregion":null,"min_zoom":5.7,"label":null,"name_ar":null,"name_bn":null,"name_de":null,"name_en":null,"name_es":null,"name_fr":null,"name_el":null,"name_hi":null,"name_hu":null,"name_id":null,"name_it":null,"name_ja":null,"name_ko":null,"name_nl":null,"name_pl":null,"name_pt":null,"name_ru":null,"name_sv":null,"name_tr":null,"name_vi":null,"name_zh":null,"wikidataid":null,"wdid_score":0,"ne_id":1159105159},"bbox":[8.7273,-0.615086,8.7273,-0.615086],"geometry":{"type":"Point","coordinates":[8.7273,-0.615086]}},{"type":"Feature","properties":{"scalerank":4,"featurecla":"cape","name":"Cape Bobaomby","comment":null,"name_alt":null,"lat_y":-11.966598,"long_x":49.262904,"region":"Africa","subregion":null,"min_zoom":5.7,"label":"Cape Bobaomby","name_ar":null,"name_bn":null,"name_de":null,"name_en":"Cap d'Ambre","name_es":null,"name_fr":"Cap d'Ambre","name_el":null,"name_hi":null,"name_hu":null,"name_id":null,"name_it":null,"name_ja":null,"name_ko":null,"name_nl":null,"name_pl":"Tanjona Bobaomby","name_pt":null,"name_ru":null,"name_sv":"Cap d'Ambre","name_tr":null,"name_vi":null,"name_zh":null,"wikidataid":"Q2937135","wdid_score":5,"ne_id":1159105161},"bbox":[49.262828,-11.966485,49.262828,-11.966485],"geometry":{"type":"Point","coordinates":[49.262828,-11.966485]}},{"type":"Feature","properties":{"scalerank":4,"featurecla":"cape","name":"Cap Blanc","comment":null,"name_alt":null,"lat_y":20.822108,"long_x":-17.052856,"region":"Africa","subregion":null,"min_zoom":5.7,"label":null,"name_ar":null,"name_bn":null,"name_de":null,"name_en":null,"name_es":null,"name_fr":null,"name_el":null,"name_hi":null,"name_hu":null,"name_id":null,"name_it":null,"name_ja":null,"name_ko":null,"name_nl":null,"name_pl":null,"name_pt":null,"name_ru":null,"name_sv":null,"name_tr":null,"name_vi":null,"name_zh":null,"wikidataid":null,"wdid_score":0,"ne_id":1159105163},"bbox":[-17.052907,20.822089,-17.052907,20.822089],"geometry":{"type":"Point","coordinates":[-17.052907,20.822089]}},{"type":"Feature","properties":{"scalerank":5,"featurecla":"cape","name":"South West Cape","comment":null,"name_alt":null,"lat_y":-43.510984,"long_x":146.054227,"region":"Oceania","subregion":"Australia","min_zoom":6,"label":"South West Cape","name_ar":null,"name_bn":null,"name_de":null,"name_en":"South West Cape","name_es":null,"name_fr":null,"name_el":null,"name_hi":null,"name_hu":null,"name_id":null,"name_it":null,"name_ja":null,"name_ko":null,"name_nl":null,"name_pl":null,"name_pt":null,"name_ru":null,"name_sv":"South West Cape","name_tr":null,"name_vi":null,"name_zh":null,"wikidataid":"Q7568836","wdid_score":3,"ne_id":1159104653},"bbox":[146.033798,-43.540403,146.033798,-43.540403],"geometry":{"type":"Point","coordinates":[146.033798,-43.540403]}},{"type":"Feature","properties":{"scalerank":5,"featurecla":"cape","name":"Cape Howe","comment":null,"name_alt":null,"lat_y":-37.488775,"long_x":149.958534,"region":"Oceania","subregion":"Australia","min_zoom":6,"label":null,"name_ar":null,"name_bn":null,"name_de":null,"name_en":null,"name_es":null,"name_fr":null,"name_el":null,"name_hi":null,"name_hu":null,"name_id":null,"name_it":null,"name_ja":null,"name_ko":null,"name_nl":null,"name_pl":null,"name_pt":null,"name_ru":null,"name_sv":null,"name_tr":null,"name_vi":null,"name_zh":null,"wikidataid":null,"wdid_score":0,"ne_id":1159104655},"bbox":[149.958385,-37.488946,149.958385,-37.488946],"geometry":{"type":"Point","coordinates":[149.958385,-37.488946]}},{"type":"Feature","properties":{"scalerank":5,"featurecla":"cape","name":"Cape Otway","comment":null,"name_alt":null,"lat_y":-38.857622,"long_x":143.565403,"region":"Oceania","subregion":"Australia","min_zoom":6,"label":"Cape Otway","name_ar":null,"name_bn":null,"name_de":"Cape Otway","name_en":"Cape Otway","name_es":"Cabo Otway","name_fr":"Cap Otway","name_el":null,"name_hi":null,"name_hu":null,"name_id":null,"name_it":null,"name_ja":"ケープ・オトウェイ","name_ko":null,"name_nl":"Cape Otway","name_pl":null,"name_pt":"Cabo Otway","name_ru":null,"name_sv":"Cape Otway","name_tr":null,"name_vi":null,"name_zh":null,"wikidataid":"Q838457","wdid_score":3,"ne_id":1159104657},"bbox":[143.537005,-38.854724,143.537005,-38.854724],"geometry":{"type":"Point","coordinates":[143.537005,-38.854724]}},{"type":"Feature","properties":{"scalerank":5,"featurecla":"cape","name":"Cape Jaffa","comment":null,"name_alt":null,"lat_y":-36.944244,"long_x":139.690866,"region":"Oceania","subregion":"Australia","min_zoom":6,"label":null,"name_ar":null,"name_bn":null,"name_de":null,"name_en":null,"name_es":null,"name_fr":null,"name_el":null,"name_hi":null,"name_hu":null,"name_id":null,"name_it":null,"name_ja":null,"name_ko":null,"name_nl":null,"name_pl":null,"name_pt":null,"name_ru":null,"name_sv":null,"name_tr":null,"name_vi":null,"name_zh":null,"wikidataid":null,"wdid_score":0,"ne_id":1159104659},"bbox":[139.68062,-36.956243,139.68062,-36.956243],"geometry":{"type":"Point","coordinates":[139.68062,-36.956243]}},{"type":"Feature","properties":{"scalerank":5,"featurecla":"cape","name":"Cape Carnot","comment":null,"name_alt":null,"lat_y":-34.920233,"long_x":135.656027,"region":"Oceania","subregion":"Australia","min_zoom":6,"label":null,"name_ar":null,"name_bn":null,"name_de":null,"name_en":null,"name_es":null,"name_fr":null,"name_el":null,"name_hi":null,"name_hu":null,"name_id":null,"name_it":null,"name_ja":null,"name_ko":null,"name_nl":null,"name_pl":null,"name_pt":null,"name_ru":null,"name_sv":null,"name_tr":null,"name_vi":null,"name_zh":null,"wikidataid":null,"wdid_score":0,"ne_id":1159104661},"bbox":[135.653783,-34.938709,135.653783,-34.938709],"geometry":{"type":"Point","coordinates":[135.653783,-34.938709]}},{"type":"Feature","properties":{"scalerank":5,"featurecla":"cape","name":"Cape Byron","comment":null,"name_alt":null,"lat_y":-28.658282,"long_x":153.632849,"region":"Oceania","subregion":"Australia","min_zoom":6,"label":"Cape Byron","name_ar":null,"name_bn":null,"name_de":"Cape Byron","name_en":"Cape Byron","name_es":"Cabo Byron","name_fr":"Cap Byron","name_el":null,"name_hi":null,"name_hu":null,"name_id":null,"name_it":null,"name_ja":null,"name_ko":null,"name_nl":"Cape Byron","name_pl":"Przylądek Byrona","name_pt":"Cabo Byron","name_ru":"Байрон","name_sv":"Kap Byron","name_tr":null,"name_vi":"Cape Byron","name_zh":"拜伦角","wikidataid":"Q1034320","wdid_score":3,"ne_id":1159104665},"bbox":[153.627992,-28.661974,153.627992,-28.661974],"geometry":{"type":"Point","coordinates":[153.627992,-28.661974]}},{"type":"Feature","properties":{"scalerank":5,"featurecla":"cape","name":"Cape Manifold","comment":null,"name_alt":null,"lat_y":-22.702081,"long_x":150.811228,"region":"Oceania","subregion":"Australia","min_zoom":6,"label":null,"name_ar":null,"name_bn":null,"name_de":null,"name_en":null,"name_es":null,"name_fr":null,"name_el":null,"name_hi":null,"name_hu":null,"name_id":null,"name_it":null,"name_ja":null,"name_ko":null,"name_nl":null,"name_pl":null,"name_pt":null,"name_ru":null,"name_sv":null,"name_tr":null,"name_vi":null,"name_zh":null,"wikidataid":null,"wdid_score":0,"ne_id":1159104667},"bbox":[150.811168,-22.702081,150.811168,-22.702081],"geometry":{"type":"Point","coordinates":[150.811168,-22.702081]}},{"type":"Feature","properties":{"scalerank":5,"featurecla":"cape","name":"Cape York","comment":null,"name_alt":null,"lat_y":-10.710859,"long_x":142.522018,"region":"Oceania","subregion":"Australia","min_zoom":6,"label":"Cape York","name_ar":null,"name_bn":null,"name_de":"Kap York","name_en":"Cape York","name_es":"Cabo York","name_fr":null,"name_el":null,"name_hi":null,"name_hu":null,"name_id":null,"name_it":null,"name_ja":null,"name_ko":null,"name_nl":"Kaap York","name_pl":"Jork","name_pt":"Cabo York","name_ru":"Йорк","name_sv":"Kap York","name_tr":null,"name_vi":null,"name_zh":null,"wikidataid":"Q1728345","wdid_score":3,"ne_id":1159104669},"bbox":[142.521739,-10.710748,142.521739,-10.710748],"geometry":{"type":"Point","coordinates":[142.521739,-10.710748]}},{"type":"Feature","properties":{"scalerank":5,"featurecla":"cape","name":"Cape Melville","comment":null,"name_alt":null,"lat_y":-14.163629,"long_x":144.506417,"region":"Oceania","subregion":"Australia","min_zoom":6,"label":null,"name_ar":null,"name_bn":null,"name_de":null,"name_en":null,"name_es":null,"name_fr":null,"name_el":null,"name_hi":null,"name_hu":null,"name_id":null,"name_it":null,"name_ja":null,"name_ko":null,"name_nl":null,"name_pl":null,"name_pt":null,"name_ru":null,"name_sv":null,"name_tr":null,"name_vi":null,"name_zh":null,"wikidataid":null,"wdid_score":0,"ne_id":1159104671},"bbox":[144.506602,-14.163507,144.506602,-14.163507],"geometry":{"type":"Point","coordinates":[144.506602,-14.163507]}},{"type":"Feature","properties":{"scalerank":5,"featurecla":"cape","name":"Cape Arnhem","comment":null,"name_alt":null,"lat_y":-12.337984,"long_x":136.952429,"region":"Oceania","subregion":"Australia","min_zoom":6,"label":null,"name_ar":null,"name_bn":null,"name_de":null,"name_en":null,"name_es":null,"name_fr":null,"name_el":null,"name_hi":null,"name_hu":null,"name_id":null,"name_it":null,"name_ja":null,"name_ko":null,"name_nl":null,"name_pl":null,"name_pt":null,"name_ru":null,"name_sv":null,"name_tr":null,"name_vi":null,"name_zh":null,"wikidataid":null,"wdid_score":0,"ne_id":1159104673},"bbox":[136.914819,-12.295663,136.914819,-12.295663],"geometry":{"type":"Point","coordinates":[136.914819,-12.295663]}},{"type":"Feature","properties":{"scalerank":5,"featurecla":"cape","name":"West Cape Howe","comment":null,"name_alt":null,"lat_y":-35.104301,"long_x":117.597011,"region":"Oceania","subregion":"Australia","min_zoom":6,"label":null,"name_ar":null,"name_bn":null,"name_de":null,"name_en":null,"name_es":null,"name_fr":null,"name_el":null,"name_hi":null,"name_hu":null,"name_id":null,"name_it":null,"name_ja":null,"name_ko":null,"name_nl":null,"name_pl":null,"name_pt":null,"name_ru":null,"name_sv":null,"name_tr":null,"name_vi":null,"name_zh":null,"wikidataid":null,"wdid_score":0,"ne_id":1159104675},"bbox":[117.596934,-35.104303,117.596934,-35.104303],"geometry":{"type":"Point","coordinates":[117.596934,-35.104303]}},{"type":"Feature","properties":{"scalerank":5,"featurecla":"cape","name":"Cape Leeuwin","comment":null,"name_alt":null,"lat_y":-34.297841,"long_x":115.10633,"region":"Oceania","subregion":"Australia","min_zoom":6,"label":"Cape Leeuwin","name_ar":null,"name_bn":null,"name_de":"Kap Leeuwin","name_en":"Cape Leeuwin","name_es":"Cabo Leeuwin","name_fr":"Cap Leeuwin","name_el":null,"name_hi":null,"name_hu":null,"name_id":null,"name_it":"Capo Leeuwin","name_ja":"ルーウィン岬","name_ko":null,"name_nl":"Kaap Leeuwin","name_pl":"Cape Leeuwin","name_pt":"Cabo Leeuwin","name_ru":null,"name_sv":"Cape Leeuwin","name_tr":null,"name_vi":null,"name_zh":"露纹角","wikidataid":"Q1536418","wdid_score":3,"ne_id":1159104677},"bbox":[115.128009,-34.328007,115.128009,-34.328007],"geometry":{"type":"Point","coordinates":[115.128009,-34.328007]}},{"type":"Feature","properties":{"scalerank":5,"featurecla":"cape","name":"Cape Pasley","comment":null,"name_alt":null,"lat_y":-33.929054,"long_x":123.517283,"region":"Oceania","subregion":"Australia","min_zoom":6,"label":null,"name_ar":null,"name_bn":null,"name_de":null,"name_en":null,"name_es":null,"name_fr":null,"name_el":null,"name_hi":null,"name_hu":null,"name_id":null,"name_it":null,"name_ja":null,"name_ko":null,"name_nl":null,"name_pl":null,"name_pt":null,"name_ru":null,"name_sv":null,"name_tr":null,"name_vi":null,"name_zh":null,"wikidataid":null,"wdid_score":0,"ne_id":1159104679},"bbox":[123.517223,-33.928888,123.517223,-33.928888],"geometry":{"type":"Point","coordinates":[123.517223,-33.928888]}},{"type":"Feature","properties":{"scalerank":5,"featurecla":"cape","name":"Cape Londonderry","comment":null,"name_alt":null,"lat_y":-13.713856,"long_x":126.964514,"region":"Oceania","subregion":"Australia","min_zoom":6,"label":null,"name_ar":null,"name_bn":null,"name_de":null,"name_en":null,"name_es":null,"name_fr":null,"name_el":null,"name_hi":null,"name_hu":null,"name_id":null,"name_it":null,"name_ja":null,"name_ko":null,"name_nl":null,"name_pl":null,"name_pt":null,"name_ru":null,"name_sv":null,"name_tr":null,"name_vi":null,"name_zh":null,"wikidataid":null,"wdid_score":0,"ne_id":1159104683},"bbox":[126.9413,-13.742906,126.9413,-13.742906],"geometry":{"type":"Point","coordinates":[126.9413,-13.742906]}},{"type":"Feature","properties":{"scalerank":5,"featurecla":"cape","name":"Steep Point","comment":null,"name_alt":null,"lat_y":-26.16822,"long_x":113.169959,"region":"Oceania","subregion":"Australia","min_zoom":6,"label":"Steep Point","name_ar":null,"name_bn":null,"name_de":"Steep Point","name_en":"Steep Point","name_es":"Punta Steep","name_fr":"Pointe Escarpée","name_el":null,"name_hi":null,"name_hu":null,"name_id":null,"name_it":null,"name_ja":null,"name_ko":null,"name_nl":null,"name_pl":"Steep Point","name_pt":"Steep Point","name_ru":"Стип-Пойнт","name_sv":"Steep Point","name_tr":null,"name_vi":null,"name_zh":null,"wikidataid":"Q1999953","wdid_score":3,"ne_id":1159104685},"bbox":[113.145196,-26.157464,113.145196,-26.157464],"geometry":{"type":"Point","coordinates":[113.145196,-26.157464]}},{"type":"Feature","properties":{"scalerank":5,"featurecla":"cape","name":"North West Cape","comment":null,"name_alt":null,"lat_y":-21.809776,"long_x":114.117534,"region":"Oceania","subregion":"Australia","min_zoom":6,"label":null,"name_ar":null,"name_bn":null,"name_de":null,"name_en":null,"name_es":null,"name_fr":null,"name_el":null,"name_hi":null,"name_hu":null,"name_id":null,"name_it":null,"name_ja":null,"name_ko":null,"name_nl":null,"name_pl":null,"name_pt":null,"name_ru":null,"name_sv":null,"name_tr":null,"name_vi":null,"name_zh":null,"wikidataid":null,"wdid_score":0,"ne_id":1159104687},"bbox":[114.160108,-21.801475,114.160108,-21.801475],"geometry":{"type":"Point","coordinates":[114.160108,-21.801475]}},{"type":"Feature","properties":{"scalerank":5,"featurecla":"cape","name":"Cabo Gracias a Dios","comment":null,"name_alt":null,"lat_y":14.994242,"long_x":-83.15866,"region":"North America","subregion":"Central America","min_zoom":6,"label":null,"name_ar":null,"name_bn":null,"name_de":null,"name_en":null,"name_es":null,"name_fr":null,"name_el":null,"name_hi":null,"name_hu":null,"name_id":null,"name_it":null,"name_ja":null,"name_ko":null,"name_nl":null,"name_pl":null,"name_pt":null,"name_ru":null,"name_sv":null,"name_tr":null,"name_vi":null,"name_zh":null,"wikidataid":null,"wdid_score":0,"ne_id":1159104691},"bbox":[-83.158742,14.994208,-83.158742,14.994208],"geometry":{"type":"Point","coordinates":[-83.158742,14.994208]}},{"type":"Feature","properties":{"scalerank":5,"featurecla":"cape","name":"Cape Brewster","comment":null,"name_alt":null,"lat_y":70.150754,"long_x":-22.122616,"region":"North America","subregion":"Greenland","min_zoom":6,"label":"Cape Brewster","name_ar":null,"name_bn":null,"name_de":null,"name_en":"Cape Brewster","name_es":null,"name_fr":null,"name_el":null,"name_hi":null,"name_hu":"Brewster-fok","name_id":null,"name_it":"Capo Brewster","name_ja":null,"name_ko":null,"name_nl":"Kaap Brewster","name_pl":null,"name_pt":null,"name_ru":null,"name_sv":null,"name_tr":null,"name_vi":null,"name_zh":null,"wikidataid":"Q3657109","wdid_score":3,"ne_id":1159104693},"bbox":[-22.122731,70.150885,-22.122731,70.150885],"geometry":{"type":"Point","coordinates":[-22.122731,70.150885]}},{"type":"Feature","properties":{"scalerank":5,"featurecla":"cape","name":"Cape Morris Jesup","comment":null,"name_alt":null,"lat_y":83.626331,"long_x":-32.491541,"region":"North America","subregion":"Greenland","min_zoom":6,"label":"Cape Morris Jesup","name_ar":null,"name_bn":null,"name_de":"Kap Morris Jesup","name_en":"Cape Morris Jesup","name_es":"Cabo Morris Jesup","name_fr":"Cap Morris Jesup","name_el":null,"name_hi":null,"name_hu":null,"name_id":null,"name_it":"Capo Morris Jesup","name_ja":"モリス・ジェサップ岬","name_ko":"모리스재섭곶","name_nl":"Kaap Morris Jesup","name_pl":"Kap Morris Jesup","name_pt":"Cabo Morris Jesup","name_ru":"Моррис-Джесуп","name_sv":"Kap Morris Jesup","name_tr":"Morris Jesup Burnu","name_vi":null,"name_zh":"莫里斯·杰塞普角","wikidataid":"Q917353","wdid_score":3,"ne_id":1159104695},"bbox":[-32.491506,83.626288,-32.491506,83.626288],"geometry":{"type":"Point","coordinates":[-32.491506,83.626288]}},{"type":"Feature","properties":{"scalerank":5,"featurecla":"island","name":"Grímsey","comment":null,"name_alt":null,"lat_y":66.669359,"long_x":-18.251096,"region":"Europe","subregion":"Iceland","min_zoom":6,"label":"Grímsey","name_ar":null,"name_bn":null,"name_de":"Grímsey","name_en":"Grímsey","name_es":"Grímsey","name_fr":"Grímsey","name_el":null,"name_hi":null,"name_hu":"Grímsey","name_id":null,"name_it":"Grímsey","name_ja":"グリムセイ島","name_ko":null,"name_nl":"Grímsey","name_pl":"Grímsey","name_pt":"Grímsey","name_ru":"Гримсей","name_sv":"Grímsey","name_tr":null,"name_vi":null,"name_zh":"格里姆赛岛","wikidataid":"Q213707","wdid_score":5,"ne_id":1159104705},"bbox":[-18.251088,66.669379,-18.251088,66.669379],"geometry":{"type":"Point","coordinates":[-18.251088,66.669379]}},{"type":"Feature","properties":{"scalerank":5,"featurecla":"island","name":"Surtsey","comment":null,"name_alt":null,"lat_y":63.217764,"long_x":-20.434929,"region":"Europe","subregion":"Iceland","min_zoom":6,"label":"Surtsey","name_ar":"سرتسي","name_bn":null,"name_de":"Surtsey","name_en":"Surtsey","name_es":"Surtsey","name_fr":"Surtsey","name_el":"Σούρτσεϊ","name_hi":"सरट्से","name_hu":"Surtsey","name_id":"Surtsey","name_it":"Surtsey","name_ja":"スルツェイ島","name_ko":"쉬르트세이 섬","name_nl":"Surtsey","name_pl":"Surtsey","name_pt":"Surtsey","name_ru":"Суртсей","name_sv":"Surtsey","name_tr":"Surtsey","name_vi":"Surtsey","name_zh":"敘爾特塞","wikidataid":"Q178124","wdid_score":3,"ne_id":1159104707},"bbox":[-20.434804,63.217719,-20.434804,63.217719],"geometry":{"type":"Point","coordinates":[-20.434804,63.217719]}},{"type":"Feature","properties":{"scalerank":5,"featurecla":"cape","name":"Cap Est","comment":null,"name_alt":null,"lat_y":-15.274849,"long_x":50.499889,"region":"Africa","subregion":"Indian Ocean","min_zoom":6,"label":null,"name_ar":null,"name_bn":null,"name_de":null,"name_en":null,"name_es":null,"name_fr":null,"name_el":null,"name_hi":null,"name_hu":null,"name_id":null,"name_it":null,"name_ja":null,"name_ko":null,"name_nl":null,"name_pl":null,"name_pt":null,"name_ru":null,"name_sv":null,"name_tr":null,"name_vi":null,"name_zh":null,"wikidataid":null,"wdid_score":0,"ne_id":1159104709},"bbox":[50.499766,-15.274957,50.499766,-15.274957],"geometry":{"type":"Point","coordinates":[50.499766,-15.274957]}},{"type":"Feature","properties":{"scalerank":5,"featurecla":"cape","name":"Cape Cretin","comment":null,"name_alt":null,"lat_y":-6.637492,"long_x":147.852392,"region":"Oceania","subregion":"Melanesia","min_zoom":6,"label":null,"name_ar":null,"name_bn":null,"name_de":null,"name_en":null,"name_es":null,"name_fr":null,"name_el":null,"name_hi":null,"name_hu":null,"name_id":null,"name_it":null,"name_ja":null,"name_ko":null,"name_nl":null,"name_pl":null,"name_pt":null,"name_ru":null,"name_sv":null,"name_tr":null,"name_vi":null,"name_zh":null,"wikidataid":null,"wdid_score":0,"ne_id":1159104727},"bbox":[147.852428,-6.637262,147.852428,-6.637262],"geometry":{"type":"Point","coordinates":[147.852428,-6.637262]}},{"type":"Feature","properties":{"scalerank":5,"featurecla":"island","name":"Îles Chesterfield","comment":null,"name_alt":null,"lat_y":-19.20447,"long_x":159.95171,"region":"Oceania","subregion":"Melanesia","min_zoom":6,"label":null,"name_ar":null,"name_bn":null,"name_de":null,"name_en":null,"name_es":null,"name_fr":null,"name_el":null,"name_hi":null,"name_hu":null,"name_id":null,"name_it":null,"name_ja":null,"name_ko":null,"name_nl":null,"name_pl":null,"name_pt":null,"name_ru":null,"name_sv":null,"name_tr":null,"name_vi":null,"name_zh":null,"wikidataid":null,"wdid_score":0,"ne_id":1159104729},"bbox":[159.951671,-19.204644,159.951671,-19.204644],"geometry":{"type":"Point","coordinates":[159.951671,-19.204644]}},{"type":"Feature","properties":{"scalerank":5,"featurecla":"island","name":"Pagan","comment":null,"name_alt":null,"lat_y":18.119631,"long_x":145.785087,"region":"Oceania","subregion":"Micronesia","min_zoom":6,"label":"Pagan","name_ar":"باجان","name_bn":null,"name_de":"Pagan","name_en":"Pagan","name_es":"isla de Pagán","name_fr":"île Pagan","name_el":null,"name_hi":null,"name_hu":null,"name_id":null,"name_it":"Pagan","name_ja":"パガン島","name_ko":null,"name_nl":"Pagan","name_pl":"Pagan","name_pt":"Ilha Pagan","name_ru":"Паган","name_sv":"Pagan","name_tr":"Pagan","name_vi":null,"name_zh":"帕甘島","wikidataid":"Q1126761","wdid_score":3,"ne_id":1159104751},"bbox":[145.784923,18.119635,145.784923,18.119635],"geometry":{"type":"Point","coordinates":[145.784923,18.119635]}},{"type":"Feature","properties":{"scalerank":5,"featurecla":"island","name":"Wake I.","comment":null,"name_alt":null,"lat_y":19.303497,"long_x":166.636262,"region":"Oceania","subregion":"Micronesia","min_zoom":6,"label":null,"name_ar":null,"name_bn":null,"name_de":null,"name_en":null,"name_es":null,"name_fr":null,"name_el":null,"name_hi":null,"name_hu":null,"name_id":null,"name_it":null,"name_ja":null,"name_ko":null,"name_nl":null,"name_pl":null,"name_pt":null,"name_ru":null,"name_sv":null,"name_tr":null,"name_vi":null,"name_zh":null,"wikidataid":null,"wdid_score":0,"ne_id":1159104755},"bbox":[166.636241,19.303595,166.636241,19.303595],"geometry":{"type":"Point","coordinates":[166.636241,19.303595]}},{"type":"Feature","properties":{"scalerank":5,"featurecla":"island","name":"Tabiteuea","comment":null,"name_alt":null,"lat_y":-1.201405,"long_x":174.755207,"region":"Oceania","subregion":"Micronesia","min_zoom":6,"label":"Tabiteuea","name_ar":null,"name_bn":null,"name_de":"Tabiteuea","name_en":"Tabiteuea","name_es":"Tabiteuea","name_fr":"Tabiteuea","name_el":null,"name_hi":null,"name_hu":null,"name_id":null,"name_it":"Tabiteuea","name_ja":"タビテウエア","name_ko":"타비테우에아","name_nl":"Tabiteuea","name_pl":null,"name_pt":"Tabiteuea","name_ru":"Табитеуэа","name_sv":"Tabiteuea","name_tr":"Tabiteuea","name_vi":"Tabiteuea","name_zh":null,"wikidataid":"Q1059267","wdid_score":3,"ne_id":1159104757},"bbox":[174.755138,-1.201349,174.755138,-1.201349],"geometry":{"type":"Point","coordinates":[174.755138,-1.201349]}},{"type":"Feature","properties":{"scalerank":5,"featurecla":"island","name":"Aranuka","comment":null,"name_alt":null,"lat_y":0.226766,"long_x":173.626286,"region":"Oceania","subregion":"Micronesia","min_zoom":6,"label":"Aranuka","name_ar":null,"name_bn":null,"name_de":"Aranuka","name_en":"Aranuka","name_es":"Aranuka","name_fr":"Aranuka","name_el":"Αρανούκα","name_hi":null,"name_hu":null,"name_id":null,"name_it":"Aranuka","name_ja":"アラヌーカ環礁","name_ko":"아라누카","name_nl":"Aranuka","name_pl":null,"name_pt":"Aranuka","name_ru":"Аранука","name_sv":"Aranuka","name_tr":null,"name_vi":null,"name_zh":"阿拉努卡環礁","wikidataid":"Q626095","wdid_score":3,"ne_id":1159104759},"bbox":[173.626231,0.226752,173.626231,0.226752],"geometry":{"type":"Point","coordinates":[173.626231,0.226752]}},{"type":"Feature","properties":{"scalerank":5,"featurecla":"island","name":"Nauru","comment":null,"name_alt":null,"lat_y":-0.505856,"long_x":166.930778,"region":"Oceania","subregion":"Micronesia","min_zoom":6,"label":"Nauru","name_ar":null,"name_bn":null,"name_de":null,"name_en":"Nauru","name_es":null,"name_fr":"Nauru","name_el":null,"name_hi":null,"name_hu":null,"name_id":null,"name_it":null,"name_ja":null,"name_ko":null,"name_nl":null,"name_pl":null,"name_pt":null,"name_ru":null,"name_sv":null,"name_tr":null,"name_vi":null,"name_zh":null,"wikidataid":"Q30151675","wdid_score":3,"ne_id":1159104761},"bbox":[166.930675,-0.505792,166.930675,-0.505792],"geometry":{"type":"Point","coordinates":[166.930675,-0.505792]}},{"type":"Feature","properties":{"scalerank":5,"featurecla":"island","name":"Ebon","comment":null,"name_alt":null,"lat_y":4.59977,"long_x":168.736432,"region":"Oceania","subregion":"Micronesia","min_zoom":6,"label":null,"name_ar":null,"name_bn":null,"name_de":null,"name_en":null,"name_es":null,"name_fr":null,"name_el":null,"name_hi":null,"name_hu":null,"name_id":null,"name_it":null,"name_ja":null,"name_ko":null,"name_nl":null,"name_pl":null,"name_pt":null,"name_ru":null,"name_sv":null,"name_tr":null,"name_vi":null,"name_zh":null,"wikidataid":null,"wdid_score":0,"ne_id":1159104763},"bbox":[168.736339,4.599799,168.736339,4.599799],"geometry":{"type":"Point","coordinates":[168.736339,4.599799]}},{"type":"Feature","properties":{"scalerank":5,"featurecla":"island","name":"Jaluit","comment":null,"name_alt":null,"lat_y":5.964455,"long_x":169.682894,"region":"Oceania","subregion":"Micronesia","min_zoom":6,"label":"Jaluit","name_ar":null,"name_bn":null,"name_de":null,"name_en":null,"name_es":null,"name_fr":null,"name_el":null,"name_hi":null,"name_hu":null,"name_id":null,"name_it":null,"name_ja":null,"name_ko":null,"name_nl":null,"name_pl":null,"name_pt":null,"name_ru":null,"name_sv":"Jaluit","name_tr":null,"name_vi":null,"name_zh":null,"wikidataid":"Q27577106","wdid_score":3,"ne_id":1159104765},"bbox":[169.682994,5.964484,169.682994,5.964484],"geometry":{"type":"Point","coordinates":[169.682994,5.964484]}},{"type":"Feature","properties":{"scalerank":5,"featurecla":"island","name":"Mili","comment":null,"name_alt":null,"lat_y":6.107334,"long_x":171.725875,"region":"Oceania","subregion":"Micronesia","min_zoom":6,"label":null,"name_ar":null,"name_bn":null,"name_de":null,"name_en":null,"name_es":null,"name_fr":null,"name_el":null,"name_hi":null,"name_hu":null,"name_id":null,"name_it":null,"name_ja":null,"name_ko":null,"name_nl":null,"name_pl":null,"name_pt":null,"name_ru":null,"name_sv":null,"name_tr":null,"name_vi":null,"name_zh":null,"wikidataid":null,"wdid_score":0,"ne_id":1159104767},"bbox":[171.725841,6.107489,171.725841,6.107489],"geometry":{"type":"Point","coordinates":[171.725841,6.107489]}},{"type":"Feature","properties":{"scalerank":5,"featurecla":"island","name":"Majuro","comment":null,"name_alt":null,"lat_y":7.118009,"long_x":171.159743,"region":"Oceania","subregion":"Micronesia","min_zoom":6,"label":"Majuro","name_ar":null,"name_bn":null,"name_de":null,"name_en":null,"name_es":null,"name_fr":null,"name_el":null,"name_hi":null,"name_hu":null,"name_id":null,"name_it":null,"name_ja":null,"name_ko":null,"name_nl":null,"name_pl":null,"name_pt":null,"name_ru":null,"name_sv":"Majuro Island","name_tr":null,"name_vi":null,"name_zh":null,"wikidataid":"Q27577464","wdid_score":5,"ne_id":1159104769},"bbox":[171.159801,7.117987,171.159801,7.117987],"geometry":{"type":"Point","coordinates":[171.159801,7.117987]}},{"type":"Feature","properties":{"scalerank":5,"featurecla":"island","name":"Ailinglapalap","comment":null,"name_alt":null,"lat_y":7.276392,"long_x":168.596926,"region":"Oceania","subregion":"Micronesia","min_zoom":6,"label":"Ailinglapalap","name_ar":null,"name_bn":null,"name_de":null,"name_en":null,"name_es":null,"name_fr":null,"name_el":null,"name_hi":null,"name_hu":null,"name_id":null,"name_it":null,"name_ja":null,"name_ko":null,"name_nl":null,"name_pl":null,"name_pt":null,"name_ru":null,"name_sv":"Ailinglaplap","name_tr":null,"name_vi":null,"name_zh":null,"wikidataid":"Q27577510","wdid_score":5,"ne_id":1159104773},"bbox":[168.596934,7.276496,168.596934,7.276496],"geometry":{"type":"Point","coordinates":[168.596934,7.276496]}},{"type":"Feature","properties":{"scalerank":5,"featurecla":"island","name":"Kwajalein","comment":null,"name_alt":null,"lat_y":8.746619,"long_x":167.735072,"region":"Oceania","subregion":"Micronesia","min_zoom":6,"label":null,"name_ar":null,"name_bn":null,"name_de":null,"name_en":null,"name_es":null,"name_fr":null,"name_el":null,"name_hi":null,"name_hu":null,"name_id":null,"name_it":null,"name_ja":null,"name_ko":null,"name_nl":null,"name_pl":null,"name_pt":null,"name_ru":null,"name_sv":null,"name_tr":null,"name_vi":null,"name_zh":null,"wikidataid":null,"wdid_score":0,"ne_id":1159104775},"bbox":[167.735118,8.746711,167.735118,8.746711],"geometry":{"type":"Point","coordinates":[167.735118,8.746711]}},{"type":"Feature","properties":{"scalerank":5,"featurecla":"island","name":"Rongelap","comment":null,"name_alt":null,"lat_y":11.164329,"long_x":166.869876,"region":"Oceania","subregion":"Micronesia","min_zoom":6,"label":null,"name_ar":null,"name_bn":null,"name_de":null,"name_en":null,"name_es":null,"name_fr":null,"name_el":null,"name_hi":null,"name_hu":null,"name_id":null,"name_it":null,"name_ja":null,"name_ko":null,"name_nl":null,"name_pl":null,"name_pt":null,"name_ru":null,"name_sv":null,"name_tr":null,"name_vi":null,"name_zh":null,"wikidataid":null,"wdid_score":0,"ne_id":1159104777},"bbox":[166.869884,11.164496,166.869884,11.164496],"geometry":{"type":"Point","coordinates":[166.869884,11.164496]}},{"type":"Feature","properties":{"scalerank":5,"featurecla":"island","name":"Bikini","comment":null,"name_alt":null,"lat_y":11.639231,"long_x":165.550698,"region":"Oceania","subregion":"Micronesia","min_zoom":6,"label":"Bikini","name_ar":null,"name_bn":null,"name_de":null,"name_en":null,"name_es":null,"name_fr":null,"name_el":null,"name_hi":null,"name_hu":null,"name_id":null,"name_it":null,"name_ja":null,"name_ko":null,"name_nl":null,"name_pl":null,"name_pt":null,"name_ru":null,"name_sv":"Bikini","name_tr":null,"name_vi":null,"name_zh":null,"wikidataid":"Q27577613","wdid_score":3,"ne_id":1159104779},"bbox":[165.550426,11.639289,165.550426,11.639289],"geometry":{"type":"Point","coordinates":[165.550426,11.639289]}},{"type":"Feature","properties":{"scalerank":5,"featurecla":"cape","name":"Cape Reinga","comment":null,"name_alt":null,"lat_y":-34.432767,"long_x":172.728503,"region":"Oceania","subregion":"New Zealand","min_zoom":6,"label":"Cape Reinga","name_ar":null,"name_bn":null,"name_de":"Cape Reinga","name_en":"Cape Reinga","name_es":"Cabo Reinga","name_fr":"Cap Reinga","name_el":null,"name_hi":null,"name_hu":"Reinga-fok","name_id":null,"name_it":"Capo Reinga","name_ja":null,"name_ko":"레잉가 곶","name_nl":"Cape Reinga","name_pl":null,"name_pt":"Cabo Reinga","name_ru":"Реинга","name_sv":null,"name_tr":null,"name_vi":null,"name_zh":"雷恩加角","wikidataid":"Q1034494","wdid_score":3,"ne_id":1159104781},"bbox":[172.705581,-34.420391,172.705581,-34.420391],"geometry":{"type":"Point","coordinates":[172.705581,-34.420391]}},{"type":"Feature","properties":{"scalerank":5,"featurecla":"island","name":"Kanton Island","comment":null,"name_alt":null,"lat_y":-2.757106,"long_x":-171.717033,"region":"Oceania","subregion":"Polynesia","min_zoom":6,"label":"Kanton","name_ar":null,"name_bn":null,"name_de":"Kanton","name_en":"Kanton Island","name_es":"Kanton","name_fr":"Canton","name_el":"Νήσος Καντών","name_hi":null,"name_hu":null,"name_id":null,"name_it":"Canton","name_ja":"カントン島","name_ko":"캔턴 섬","name_nl":"Kanton","name_pl":"Kanton","name_pt":"Ilha Kanton","name_ru":"Кантон","name_sv":"Kantonatollen","name_tr":null,"name_vi":null,"name_zh":"阿巴里靈阿環礁","wikidataid":"Q30895","wdid_score":5,"ne_id":1159104819},"bbox":[-171.71703,-2.757135,-171.71703,-2.757135],"geometry":{"type":"Point","coordinates":[-171.71703,-2.757135]}},{"type":"Feature","properties":{"scalerank":5,"featurecla":"island","name":"Tabuaeran","comment":null,"name_alt":"Fanning I.","lat_y":3.866545,"long_x":-159.326781,"region":"Oceania","subregion":"Polynesia","min_zoom":6,"label":null,"name_ar":null,"name_bn":null,"name_de":null,"name_en":null,"name_es":null,"name_fr":null,"name_el":null,"name_hi":null,"name_hu":null,"name_id":null,"name_it":null,"name_ja":null,"name_ko":null,"name_nl":null,"name_pl":null,"name_pt":null,"name_ru":null,"name_sv":null,"name_tr":null,"name_vi":null,"name_zh":null,"wikidataid":null,"wdid_score":0,"ne_id":1159104821},"bbox":[-159.326833,3.866706,-159.326833,3.866706],"geometry":{"type":"Point","coordinates":[-159.326833,3.866706]}},{"type":"Feature","properties":{"scalerank":5,"featurecla":"island","name":"Malden Island","comment":null,"name_alt":null,"lat_y":-4.042491,"long_x":-154.983478,"region":"Oceania","subregion":"Polynesia","min_zoom":6,"label":"Malden","name_ar":null,"name_bn":null,"name_de":"Malden","name_en":"Malden Island","name_es":"Isla Malden","name_fr":"Malden","name_el":"Μάλντεν Νήσος","name_hi":null,"name_hu":null,"name_id":null,"name_it":"Malden","name_ja":"マルデン島","name_ko":"몰덴 섬","name_nl":"Malden","name_pl":"Malden Island","name_pt":"Ilha Malden","name_ru":"Молден","name_sv":"Malden Island","name_tr":null,"name_vi":null,"name_zh":"莫爾登島","wikidataid":"Q532590","wdid_score":5,"ne_id":1159104823},"bbox":[-154.98351,-4.042657,-154.98351,-4.042657],"geometry":{"type":"Point","coordinates":[-154.98351,-4.042657]}},{"type":"Feature","properties":{"scalerank":5,"featurecla":"island","name":"Rarotonga","comment":null,"name_alt":null,"lat_y":-21.201867,"long_x":-159.797637,"region":"Oceania","subregion":"Polynesia","min_zoom":6,"label":"Rarotonga","name_ar":"راروتونغا","name_bn":"রারোটোঙ্গা","name_de":"Rarotonga","name_en":"Rarotonga","name_es":"Rarotonga","name_fr":"Rarotonga","name_el":"Ραροτόνγκα","name_hi":"रैरोटोंगा","name_hu":"Rarotonga","name_id":"Rarotonga","name_it":"Rarotonga","name_ja":"ラロトンガ島","name_ko":"라로통가 섬","name_nl":"Rarotonga","name_pl":"Rarotonga","name_pt":"Rarotonga","name_ru":"Раротонга","name_sv":"Rarotonga","name_tr":"Rarotonga","name_vi":"Rarotonga","name_zh":"拉罗汤加岛","wikidataid":"Q471793","wdid_score":3,"ne_id":1159104827},"bbox":[-159.797719,-21.201837,-159.797719,-21.201837],"geometry":{"type":"Point","coordinates":[-159.797719,-21.201837]}},{"type":"Feature","properties":{"scalerank":5,"featurecla":"island","name":"Rangiroa","comment":null,"name_alt":null,"lat_y":-15.2046,"long_x":-147.773967,"region":"Oceania","subregion":"Polynesia","min_zoom":6,"label":"Rangiroa","name_ar":null,"name_bn":null,"name_de":"Rangiroa","name_en":"Rangiroa","name_es":"Rangiroa","name_fr":"Rangiroa","name_el":null,"name_hi":null,"name_hu":"Rangiroa","name_id":null,"name_it":"Rangiroa","name_ja":"ランギロア環礁","name_ko":null,"name_nl":"Rangiroa","name_pl":"Rangiroa","name_pt":"Rangiroa","name_ru":"Рангироа","name_sv":"Rangiroa","name_tr":null,"name_vi":null,"name_zh":"倫吉拉環礁","wikidataid":"Q757399","wdid_score":3,"ne_id":1159104829},"bbox":[-147.774037,-15.204767,-147.774037,-15.204767],"geometry":{"type":"Point","coordinates":[-147.774037,-15.204767]}},{"type":"Feature","properties":{"scalerank":5,"featurecla":"island","name":"Funafuti","comment":null,"name_alt":null,"lat_y":-8.491577,"long_x":179.198413,"region":"Oceania","subregion":"Polynesia","min_zoom":6,"label":"Funafuti","name_ar":null,"name_bn":null,"name_de":"Fongafale","name_en":"Fongafale","name_es":"Fongafale","name_fr":"Fongafale","name_el":"Φονγκαφάλε","name_hi":null,"name_hu":"Fongafale","name_id":null,"name_it":"Fongafale","name_ja":null,"name_ko":null,"name_nl":"Fongafale","name_pl":"Fongafale","name_pt":"Fongafale","name_ru":"Фонгафале","name_sv":"Fongafale","name_tr":"Fongafale","name_vi":null,"name_zh":"風加法列","wikidataid":"Q731947","wdid_score":5,"ne_id":1159104831},"bbox":[179.198375,-8.491632,179.198375,-8.491632],"geometry":{"type":"Point","coordinates":[179.198375,-8.491632]}},{"type":"Feature","properties":{"scalerank":5,"featurecla":"island","name":"Saint Croix","comment":null,"name_alt":null,"lat_y":17.762944,"long_x":-64.763088,"region":"North America","subregion":"West Indies","min_zoom":6,"label":"St. Croix","name_ar":null,"name_bn":null,"name_de":"Saint Croix","name_en":"Saint Croix","name_es":"Saint Croix","name_fr":"Sainte-Croix","name_el":"Σαιντ Κρουά","name_hi":null,"name_hu":"Saint Croix","name_id":null,"name_it":"Saint Croix","name_ja":"セント・クロイ島","name_ko":"세인트크로이 섬","name_nl":"Saint Croix","name_pl":"Saint Croix","name_pt":"Saint Croix","name_ru":"Санта-Крус","name_sv":"Saint Croix","name_tr":null,"name_vi":null,"name_zh":"圣克洛伊岛","wikidataid":"Q642481","wdid_score":5,"ne_id":1159104837},"bbox":[-64.763173,17.763007,-64.763173,17.763007],"geometry":{"type":"Point","coordinates":[-64.763173,17.763007]}},{"type":"Feature","properties":{"scalerank":5,"featurecla":"island","name":"Grand Cayman","comment":null,"name_alt":null,"lat_y":19.315829,"long_x":-81.271416,"region":"North America","subregion":"West Indies","min_zoom":6,"label":"Grand Cayman","name_ar":null,"name_bn":null,"name_de":"Grand Cayman","name_en":"Grand Cayman","name_es":"Gran Caimán","name_fr":"Grand Cayman","name_el":"Γκραντ Κέιμαν","name_hi":null,"name_hu":null,"name_id":null,"name_it":"Grand Cayman","name_ja":"グランドケイマン","name_ko":null,"name_nl":"Grand Cayman","name_pl":"Wielki Kajman","name_pt":"Grande Caimão","name_ru":"Большой Кайман","name_sv":"Grand Cayman","name_tr":null,"name_vi":null,"name_zh":"大開曼","wikidataid":"Q737765","wdid_score":3,"ne_id":1159104839},"bbox":[-81.271596,19.315802,-81.271596,19.315802],"geometry":{"type":"Point","coordinates":[-81.271596,19.315802]}},{"type":"Feature","properties":{"scalerank":5,"featurecla":"island","name":"San Salvador","comment":null,"name_alt":null,"lat_y":24.052793,"long_x":-74.492848,"region":"North America","subregion":"West Indies","min_zoom":6,"label":"San Salvador","name_ar":"جزيرة سان سلفادور","name_bn":"সান সালভাদর আইল্যান্ড","name_de":"San Salvador","name_en":"San Salvador Island","name_es":"San Salvador","name_fr":"San Salvador","name_el":"Σαν Σαλβαντόρ","name_hi":"सैन साल्वाडोर द्वीप","name_hu":null,"name_id":"Pulau San Salvador","name_it":"San Salvador","name_ja":"サン・サルバドル島","name_ko":"산살바도르 섬","name_nl":"San Salvador","name_pl":"San Salvador","name_pt":"San Salvador","name_ru":"Сан-Сальвадор","name_sv":"San Salvador","name_tr":"San Salvador Adaları","name_vi":"Đảo San Salvador","name_zh":"圣萨尔瓦多岛","wikidataid":"Q845540","wdid_score":5,"ne_id":1159104841},"bbox":[-74.492909,24.052802,-74.492909,24.052802],"geometry":{"type":"Point","coordinates":[-74.492909,24.052802]}},{"type":"Feature","properties":{"scalerank":5,"featurecla":"island","name":"Grenada","comment":null,"name_alt":null,"lat_y":12.105978,"long_x":-61.723079,"region":"North America","subregion":"West Indies","min_zoom":6,"label":"Grenada","name_ar":"غرينادا","name_bn":null,"name_de":"Grenada","name_en":"Grenada","name_es":"Grenada","name_fr":"Grenade","name_el":null,"name_hi":null,"name_hu":null,"name_id":null,"name_it":null,"name_ja":null,"name_ko":null,"name_nl":"Grenada","name_pl":"Grenada","name_pt":"Grenada","name_ru":"Гренада","name_sv":null,"name_tr":null,"name_vi":null,"name_zh":null,"wikidataid":"Q3116419","wdid_score":3,"ne_id":1159104845},"bbox":[-61.723195,12.105963,-61.723195,12.105963],"geometry":{"type":"Point","coordinates":[-61.723195,12.105963]}},{"type":"Feature","properties":{"scalerank":5,"featurecla":"island","name":"Barbuda","comment":null,"name_alt":null,"lat_y":17.622525,"long_x":-61.789243,"region":"North America","subregion":"West Indies","min_zoom":6,"label":"Barbuda","name_ar":"بربودا","name_bn":"বারবুডা","name_de":"Barbuda","name_en":"Barbuda","name_es":"Barbuda","name_fr":"Barbuda","name_el":"Μπαρμπούντα","name_hi":"बारबूडा","name_hu":"Barbuda","name_id":"Barbuda","name_it":"Barbuda","name_ja":"バーブーダ島","name_ko":"바부다 섬","name_nl":"Barbuda","name_pl":"Barbuda","name_pt":"Barbuda","name_ru":"Барбуда","name_sv":"Barbuda","name_tr":"Barbuda","name_vi":"Barbuda","name_zh":"巴布達島","wikidataid":"Q238752","wdid_score":3,"ne_id":1159104847},"bbox":[-61.789296,17.622626,-61.789296,17.622626],"geometry":{"type":"Point","coordinates":[-61.789296,17.622626]}},{"type":"Feature","properties":{"scalerank":5,"featurecla":"island","name":"Antigua","comment":null,"name_alt":null,"lat_y":17.040441,"long_x":-61.775982,"region":"North America","subregion":"West Indies","min_zoom":6,"label":"Antigua","name_ar":null,"name_bn":null,"name_de":null,"name_en":null,"name_es":null,"name_fr":null,"name_el":null,"name_hi":null,"name_hu":null,"name_id":null,"name_it":null,"name_ja":null,"name_ko":null,"name_nl":null,"name_pl":null,"name_pt":null,"name_ru":null,"name_sv":"Antigua","name_tr":null,"name_vi":null,"name_zh":null,"wikidataid":"Q22087941","wdid_score":2,"ne_id":1159104849},"bbox":[-61.775929,17.040595,-61.775929,17.040595],"geometry":{"type":"Point","coordinates":[-61.775929,17.040595]}},{"type":"Feature","properties":{"scalerank":5,"featurecla":"island","name":"Guadeloupe","comment":null,"name_alt":null,"lat_y":16.180583,"long_x":-61.656947,"region":"North America","subregion":"West Indies","min_zoom":6,"label":"Guadeloupe","name_ar":null,"name_bn":null,"name_de":null,"name_en":"Guadeloupe","name_es":null,"name_fr":"Guadeloupe","name_el":null,"name_hi":null,"name_hu":null,"name_id":null,"name_it":null,"name_ja":null,"name_ko":null,"name_nl":"Guadeloupe","name_pl":"Gwadelupa","name_pt":null,"name_ru":null,"name_sv":null,"name_tr":null,"name_vi":null,"name_zh":null,"wikidataid":"Q3118683","wdid_score":3,"ne_id":1159104851},"bbox":[-61.657033,16.18067,-61.657033,16.18067],"geometry":{"type":"Point","coordinates":[-61.657033,16.18067]}},{"type":"Feature","properties":{"scalerank":5,"featurecla":"island","name":"Dominica","comment":null,"name_alt":null,"lat_y":15.452943,"long_x":-61.352652,"region":"North America","subregion":"West Indies","min_zoom":6,"label":"Dominica","name_ar":null,"name_bn":null,"name_de":null,"name_en":"Dominica","name_es":null,"name_fr":"Dominique","name_el":null,"name_hi":null,"name_hu":null,"name_id":null,"name_it":null,"name_ja":null,"name_ko":null,"name_nl":null,"name_pl":null,"name_pt":null,"name_ru":null,"name_sv":null,"name_tr":null,"name_vi":null,"name_zh":null,"wikidataid":"Q27507993","wdid_score":3,"ne_id":1159104853},"bbox":[-61.352712,15.452887,-61.352712,15.452887],"geometry":{"type":"Point","coordinates":[-61.352712,15.452887]}},{"type":"Feature","properties":{"scalerank":5,"featurecla":"island","name":"Martinique","comment":null,"name_alt":null,"lat_y":14.672462,"long_x":-61.008715,"region":"North America","subregion":"West Indies","min_zoom":6,"label":"Martinique","name_ar":"مارتينيك","name_bn":"মার্তিনিক","name_de":"Martinique","name_en":"Martinique","name_es":"Martinica","name_fr":"Martinique","name_el":"Μαρτινίκα","name_hi":"मार्टीनिक","name_hu":"Martinique","name_id":"Martinik","name_it":"Martinica","name_ja":"マルティニーク","name_ko":"마르티니크","name_nl":"Martinique","name_pl":"Martynika","name_pt":"Martinica","name_ru":"Мартиника","name_sv":"Martinique","name_tr":"Martinique","name_vi":"Martinique","name_zh":"馬提尼克","wikidataid":"Q17054","wdid_score":3,"ne_id":1159104855},"bbox":[-61.008839,14.672492,-61.008839,14.672492],"geometry":{"type":"Point","coordinates":[-61.008839,14.672492]}},{"type":"Feature","properties":{"scalerank":5,"featurecla":"island","name":"Saint Lucia","comment":null,"name_alt":null,"lat_y":13.918332,"long_x":-60.982225,"region":"North America","subregion":"West Indies","min_zoom":6,"label":"Saint Lucia","name_ar":null,"name_bn":null,"name_de":null,"name_en":"Saint Lucia","name_es":null,"name_fr":"Sainte-Lucie","name_el":null,"name_hi":null,"name_hu":null,"name_id":null,"name_it":null,"name_ja":null,"name_ko":null,"name_nl":null,"name_pl":null,"name_pt":null,"name_ru":null,"name_sv":null,"name_tr":null,"name_vi":null,"name_zh":null,"wikidataid":"Q27508090","wdid_score":3,"ne_id":1159104857},"bbox":[-60.982228,13.91828,-60.982228,13.91828],"geometry":{"type":"Point","coordinates":[-60.982228,13.91828]}},{"type":"Feature","properties":{"scalerank":5,"featurecla":"island","name":"Saint Vincent","comment":null,"name_alt":null,"lat_y":13.270131,"long_x":-61.207143,"region":"North America","subregion":"West Indies","min_zoom":6,"label":"Saint Vincent","name_ar":"سانت فنسنت","name_bn":null,"name_de":"St. Vincent","name_en":"Saint Vincent","name_es":"Isla de San Vicente","name_fr":"Saint-Vincent","name_el":"Άγιος Βικέντιος","name_hi":null,"name_hu":null,"name_id":null,"name_it":"Saint Vincent","name_ja":"セントビンセント島","name_ko":"세인트빈센트 섬","name_nl":"Saint Vincent","name_pl":"Saint Vincent","name_pt":"Ilha de São Vicente","name_ru":"Сент-Винсент","name_sv":"Saint Vincent","name_tr":null,"name_vi":null,"name_zh":"圣文森特岛","wikidataid":"Q379656","wdid_score":3,"ne_id":1159104859},"bbox":[-61.207204,13.270209,-61.207204,13.270209],"geometry":{"type":"Point","coordinates":[-61.207204,13.270209]}},{"type":"Feature","properties":{"scalerank":5,"featurecla":"island","name":"Barbados","comment":null,"name_alt":null,"lat_y":13.164326,"long_x":-59.566742,"region":"North America","subregion":"West Indies","min_zoom":6,"label":"Barbados","name_ar":null,"name_bn":null,"name_de":null,"name_en":"Barbados","name_es":null,"name_fr":"Barbade","name_el":null,"name_hi":null,"name_hu":null,"name_id":null,"name_it":null,"name_ja":null,"name_ko":null,"name_nl":null,"name_pl":null,"name_pt":null,"name_ru":null,"name_sv":null,"name_tr":null,"name_vi":null,"name_zh":null,"wikidataid":"Q30151210","wdid_score":3,"ne_id":1159104863},"bbox":[-59.566823,13.164252,-59.566823,13.164252],"geometry":{"type":"Point","coordinates":[-59.566823,13.164252]}},{"type":"Feature","properties":{"scalerank":5,"featurecla":"island","name":"Tobago","comment":null,"name_alt":null,"lat_y":11.259334,"long_x":-60.677992,"region":"South America","subregion":"West Indies","min_zoom":6,"label":"Tobago","name_ar":"توباغو","name_bn":"টোবাগো","name_de":"Tobago","name_en":"Tobago","name_es":"Tobago","name_fr":"Tobago","name_el":"Τομπάγκο","name_hi":"टोबैगो","name_hu":"Tobago","name_id":"Tobago","name_it":"Tobago","name_ja":"トバゴ島","name_ko":"토바고 섬","name_nl":"Tobago","name_pl":"Tobago","name_pt":"Tobago","name_ru":"Тобаго","name_sv":"Tobago","name_tr":"Tobago","name_vi":"Tobago","name_zh":"多巴哥岛","wikidataid":"Q185111","wdid_score":3,"ne_id":1159104865},"bbox":[-60.67809,11.259284,-60.67809,11.259284],"geometry":{"type":"Point","coordinates":[-60.67809,11.259284]}},{"type":"Feature","properties":{"scalerank":5,"featurecla":"island","name":"Margarita","comment":null,"name_alt":null,"lat_y":10.981467,"long_x":-64.051401,"region":"South America","subregion":"West Indies","min_zoom":6,"label":"Margarita","name_ar":"جزيرة مارغريتا","name_bn":null,"name_de":"Isla Margarita","name_en":"Isla Margarita","name_es":"Isla de Margarita","name_fr":"Margarita","name_el":"Νήσος Μαργαρίτα","name_hi":null,"name_hu":"Margarita","name_id":"Isla Margarita","name_it":"Margarita","name_ja":"マルガリータ島","name_ko":"마르가리타 섬","name_nl":"Isla Margarita","name_pl":"Margarita","name_pt":"Ilha de Margarita","name_ru":"Маргарита","name_sv":"Isla Margarita","name_tr":null,"name_vi":null,"name_zh":"玛格丽塔岛","wikidataid":"Q334738","wdid_score":5,"ne_id":1159104867},"bbox":[-64.051442,10.981513,-64.051442,10.981513],"geometry":{"type":"Point","coordinates":[-64.051442,10.981513]}},{"type":"Feature","properties":{"scalerank":5,"featurecla":"island","name":"Curaçao","comment":null,"name_alt":null,"lat_y":12.185355,"long_x":-68.999109,"region":"North America","subregion":"West Indies","min_zoom":6,"label":"Curaçao","name_ar":"كوراساو","name_bn":"কিউরাসাও","name_de":"Curaçao","name_en":"Curaçao","name_es":"Curazao","name_fr":"Curaçao","name_el":"Κουρασάο","name_hi":"कुराकाओ","name_hu":"Curaçao","name_id":"Curaçao","name_it":"Curaçao","name_ja":"キュラソー島","name_ko":"퀴라소","name_nl":"Curaçao","name_pl":"Curaçao","name_pt":"Curaçao","name_ru":"Кюрасао","name_sv":"Curaçao","name_tr":"Curaçao","name_vi":"Curaçao","name_zh":"库拉索","wikidataid":"Q25279","wdid_score":3,"ne_id":1159104869},"bbox":[-68.999196,12.185309,-68.999196,12.185309],"geometry":{"type":"Point","coordinates":[-68.999196,12.185309]}},{"type":"Feature","properties":{"scalerank":5,"featurecla":"island","name":"Aruba","comment":null,"name_alt":null,"lat_y":12.502849,"long_x":-69.96488,"region":"North America","subregion":"West Indies","min_zoom":6,"label":"Aruba","name_ar":"أروبا","name_bn":"আরুবা","name_de":"Aruba","name_en":"Aruba","name_es":"Aruba","name_fr":"Aruba","name_el":"Αρούμπα","name_hi":"अरूबा","name_hu":"Aruba","name_id":"Aruba","name_it":"Aruba","name_ja":"アルバ","name_ko":"아루바","name_nl":"Aruba","name_pl":"Aruba","name_pt":"Aruba","name_ru":"Аруба","name_sv":"Aruba","name_tr":"Aruba","name_vi":"Aruba","name_zh":"阿魯巴","wikidataid":"Q21203","wdid_score":3,"ne_id":1159104871},"bbox":[-69.965016,12.502753,-69.965016,12.502753],"geometry":{"type":"Point","coordinates":[-69.965016,12.502753]}},{"type":"Feature","properties":{"scalerank":5,"featurecla":"cape","name":"Ra’s Banäs","comment":null,"name_alt":null,"lat_y":23.950592,"long_x":35.778059,"region":"Africa","subregion":null,"min_zoom":6,"label":null,"name_ar":null,"name_bn":null,"name_de":null,"name_en":null,"name_es":null,"name_fr":null,"name_el":null,"name_hi":null,"name_hu":null,"name_id":null,"name_it":null,"name_ja":null,"name_ko":null,"name_nl":null,"name_pl":null,"name_pt":null,"name_ru":null,"name_sv":null,"name_tr":null,"name_vi":null,"name_zh":null,"wikidataid":null,"wdid_score":0,"ne_id":1159104873},"bbox":[35.778087,23.950629,35.778087,23.950629],"geometry":{"type":"Point","coordinates":[35.778087,23.950629]}},{"type":"Feature","properties":{"scalerank":5,"featurecla":"cape","name":"Ponta das Salinas","comment":null,"name_alt":null,"lat_y":-12.832908,"long_x":12.928991,"region":"Africa","subregion":null,"min_zoom":6,"label":null,"name_ar":null,"name_bn":null,"name_de":null,"name_en":null,"name_es":null,"name_fr":null,"name_el":null,"name_hi":null,"name_hu":null,"name_id":null,"name_it":null,"name_ja":null,"name_ko":null,"name_nl":null,"name_pl":null,"name_pt":null,"name_ru":null,"name_sv":null,"name_tr":null,"name_vi":null,"name_zh":null,"wikidataid":null,"wdid_score":0,"ne_id":1159104875},"bbox":[12.968705,-12.855718,12.968705,-12.855718],"geometry":{"type":"Point","coordinates":[12.968705,-12.855718]}},{"type":"Feature","properties":{"scalerank":5,"featurecla":"cape","name":"Ponta das Palmeirinhas","comment":null,"name_alt":null,"lat_y":-9.071387,"long_x":12.999549,"region":"Africa","subregion":null,"min_zoom":6,"label":null,"name_ar":null,"name_bn":null,"name_de":null,"name_en":null,"name_es":null,"name_fr":null,"name_el":null,"name_hi":null,"name_hu":null,"name_id":null,"name_it":null,"name_ja":null,"name_ko":null,"name_nl":null,"name_pl":null,"name_pt":null,"name_ru":null,"name_sv":null,"name_tr":null,"name_vi":null,"name_zh":null,"wikidataid":null,"wdid_score":0,"ne_id":1159104877},"bbox":[13.033811,-9.099938,13.033811,-9.099938],"geometry":{"type":"Point","coordinates":[13.033811,-9.099938]}},{"type":"Feature","properties":{"scalerank":5,"featurecla":"cape","name":"Cabo Bojador","comment":null,"name_alt":null,"lat_y":26.157836,"long_x":-14.473111,"region":"Africa","subregion":null,"min_zoom":6,"label":"Cabo Bojador","name_ar":"رأس بوجادور","name_bn":null,"name_de":"Kap Bojador","name_en":"Cape Bojador","name_es":"Cabo Bojador","name_fr":"Cap Boujdour","name_el":null,"name_hi":null,"name_hu":null,"name_id":null,"name_it":"Capo Bojador","name_ja":"カボ・ボハドール","name_ko":"보자도르 곶","name_nl":"Kaap Bojador","name_pl":"Ras Budżdur","name_pt":"Cabo Bojador","name_ru":"Буждур","name_sv":"Kap Bojador","name_tr":null,"name_vi":null,"name_zh":"博哈多爾角","wikidataid":"Q185222","wdid_score":5,"ne_id":1159104881},"bbox":[-14.473195,26.157965,-14.473195,26.157965],"geometry":{"type":"Point","coordinates":[-14.473195,26.157965]}},{"type":"Feature","properties":{"scalerank":5,"featurecla":"cape","name":"Cape Comorin","comment":null,"name_alt":null,"lat_y":8.143554,"long_x":77.471497,"region":"Asia","subregion":null,"min_zoom":6,"label":"Cape Comorin","name_ar":null,"name_bn":"কন্যাকুমারী","name_de":"Kap Komorin","name_en":"Cape Comorin","name_es":"Cabo Comorin","name_fr":"Cap Comorin","name_el":null,"name_hi":null,"name_hu":null,"name_id":null,"name_it":null,"name_ja":null,"name_ko":null,"name_nl":null,"name_pl":null,"name_pt":null,"name_ru":"Коморин","name_sv":"Kap Comorin","name_tr":null,"name_vi":null,"name_zh":null,"wikidataid":"Q946721","wdid_score":2,"ne_id":1159104929},"bbox":[77.512105,8.085339,77.512105,8.085339],"geometry":{"type":"Point","coordinates":[77.512105,8.085339]}},{"type":"Feature","properties":{"scalerank":5,"featurecla":"cape","name":"Dondra Head","comment":null,"name_alt":null,"lat_y":5.947528,"long_x":80.616321,"region":"Asia","subregion":null,"min_zoom":6,"label":"Dondra Head","name_ar":null,"name_bn":null,"name_de":null,"name_en":"Dondra Head","name_es":"Dondra","name_fr":null,"name_el":null,"name_hi":null,"name_hu":null,"name_id":null,"name_it":null,"name_ja":"ドンドラヘッド","name_ko":null,"name_nl":null,"name_pl":"Dewundara Tuduwa","name_pt":"Cabo Dondra","name_ru":"Дондра Хэд","name_sv":"Dondra Head","name_tr":null,"name_vi":null,"name_zh":"栋德勒角","wikidataid":"Q2426307","wdid_score":3,"ne_id":1159104931},"bbox":[80.591809,5.929581,80.591809,5.929581],"geometry":{"type":"Point","coordinates":[80.591809,5.929581]}},{"type":"Feature","properties":{"scalerank":5,"featurecla":"cape","name":"Cape Yelizavety","comment":null,"name_alt":null,"lat_y":54.416083,"long_x":142.720445,"region":"Asia","subregion":null,"min_zoom":6,"label":"Cape Yelizavety","name_ar":null,"name_bn":null,"name_de":null,"name_en":"Cape Elizabeth","name_es":null,"name_fr":"Cap Élisabeth","name_el":null,"name_hi":null,"name_hu":null,"name_id":null,"name_it":"Capo Elizaveta","name_ja":"エリザベス岬","name_ko":null,"name_nl":"Mis Elizaveti","name_pl":"Przylądek Elżbiety","name_pt":null,"name_ru":"Мыс Елизаветы","name_sv":null,"name_tr":null,"name_vi":null,"name_zh":null,"wikidataid":"Q2469144","wdid_score":5,"ne_id":1159104935},"bbox":[142.720592,54.416205,142.720592,54.416205],"geometry":{"type":"Point","coordinates":[142.720592,54.416205]}},{"type":"Feature","properties":{"scalerank":5,"featurecla":"cape","name":"Pt. Yuzhnyy","comment":null,"name_alt":null,"lat_y":57.733572,"long_x":156.796426,"region":"Asia","subregion":null,"min_zoom":6,"label":null,"name_ar":null,"name_bn":null,"name_de":null,"name_en":null,"name_es":null,"name_fr":null,"name_el":null,"name_hi":null,"name_hu":null,"name_id":null,"name_it":null,"name_ja":null,"name_ko":null,"name_nl":null,"name_pl":null,"name_pt":null,"name_ru":null,"name_sv":null,"name_tr":null,"name_vi":null,"name_zh":null,"wikidataid":null,"wdid_score":0,"ne_id":1159104937},"bbox":[156.796641,57.733466,156.796641,57.733466],"geometry":{"type":"Point","coordinates":[156.796641,57.733466]}},{"type":"Feature","properties":{"scalerank":5,"featurecla":"cape","name":"Cape Sata","comment":null,"name_alt":null,"lat_y":31.026941,"long_x":130.695089,"region":"Asia","subregion":null,"min_zoom":6,"label":"Cape Sata","name_ar":null,"name_bn":null,"name_de":null,"name_en":"Cape Sata","name_es":"Cabo Sata","name_fr":"Cap Sata","name_el":null,"name_hi":null,"name_hu":null,"name_id":null,"name_it":null,"name_ja":"佐多岬","name_ko":"사타 곶","name_nl":null,"name_pl":"Przylądek Sata","name_pt":"Cabo Sata","name_ru":null,"name_sv":null,"name_tr":null,"name_vi":null,"name_zh":"佐多岬","wikidataid":"Q431595","wdid_score":3,"ne_id":1159104939},"bbox":[130.695201,31.026923,130.695201,31.026923],"geometry":{"type":"Point","coordinates":[130.695201,31.026923]}},{"type":"Feature","properties":{"scalerank":5,"featurecla":"cape","name":"Cape Aniva","comment":null,"name_alt":null,"lat_y":46.081706,"long_x":143.434871,"region":"Asia","subregion":null,"min_zoom":6,"label":"Cape Aniva","name_ar":null,"name_bn":null,"name_de":null,"name_en":"Cape Aniva","name_es":null,"name_fr":"Cap Aniva","name_el":null,"name_hi":null,"name_hu":null,"name_id":null,"name_it":"Capo Aniva","name_ja":"中知床岬","name_ko":null,"name_nl":"Aniva","name_pl":null,"name_pt":null,"name_ru":"мыс Анива","name_sv":null,"name_tr":null,"name_vi":null,"name_zh":"阿尼瓦岬","wikidataid":"Q1083875","wdid_score":3,"ne_id":1159104941},"bbox":[143.434825,46.081794,143.434825,46.081794],"geometry":{"type":"Point","coordinates":[143.434825,46.081794]}},{"type":"Feature","properties":{"scalerank":5,"featurecla":"cape","name":"Cape Terpeniya","comment":null,"name_alt":null,"lat_y":48.66928,"long_x":144.712582,"region":"Asia","subregion":null,"min_zoom":6,"label":"Cape Terpeniya","name_ar":null,"name_bn":null,"name_de":null,"name_en":null,"name_es":null,"name_fr":"Cap Terpenia","name_el":null,"name_hi":null,"name_hu":null,"name_id":null,"name_it":"Capo Terpenija","name_ja":"北知床岬","name_ko":null,"name_nl":null,"name_pl":null,"name_pt":null,"name_ru":"Мыс Терпения","name_sv":null,"name_tr":null,"name_vi":null,"name_zh":null,"wikidataid":"Q4309490","wdid_score":5,"ne_id":1159104943},"bbox":[144.712535,48.669379,144.712535,48.669379],"geometry":{"type":"Point","coordinates":[144.712535,48.669379]}},{"type":"Feature","properties":{"scalerank":5,"featurecla":"cape","name":"Cape Lopatka","comment":null,"name_alt":null,"lat_y":50.914155,"long_x":156.651536,"region":"Asia","subregion":null,"min_zoom":6,"label":"Cape Lopatka","name_ar":null,"name_bn":null,"name_de":null,"name_en":"Cape Lopatka","name_es":"Cabo Lopatka","name_fr":"Cap Lopatka","name_el":null,"name_hi":null,"name_hu":null,"name_id":null,"name_it":"capo Lopatka","name_ja":"ロパートカ岬","name_ko":"로팟카 곶","name_nl":"Kaap Lopatka","name_pl":"Łopatka","name_pt":"Cabo Lopatka","name_ru":"Лопатка","name_sv":null,"name_tr":null,"name_vi":null,"name_zh":"洛帕特卡角","wikidataid":"Q1199044","wdid_score":3,"ne_id":1159104945},"bbox":[156.651622,50.91413,156.651622,50.91413],"geometry":{"type":"Point","coordinates":[156.651622,50.91413]}},{"type":"Feature","properties":{"scalerank":5,"featurecla":"cape","name":"Cape Ozernoy","comment":null,"name_alt":null,"lat_y":57.7708,"long_x":163.246685,"region":"Asia","subregion":null,"min_zoom":6,"label":null,"name_ar":null,"name_bn":null,"name_de":null,"name_en":null,"name_es":null,"name_fr":null,"name_el":null,"name_hi":null,"name_hu":null,"name_id":null,"name_it":null,"name_ja":null,"name_ko":null,"name_nl":null,"name_pl":null,"name_pt":null,"name_ru":null,"name_sv":null,"name_tr":null,"name_vi":null,"name_zh":null,"wikidataid":null,"wdid_score":0,"ne_id":1159104947},"bbox":[163.246837,57.77088,163.246837,57.77088],"geometry":{"type":"Point","coordinates":[163.246837,57.77088]}},{"type":"Feature","properties":{"scalerank":5,"featurecla":"cape","name":"Cape Olyutorskiy","comment":null,"name_alt":null,"lat_y":59.960807,"long_x":170.312651,"region":"Asia","subregion":null,"min_zoom":6,"label":"Cape Olyutorskiy","name_ar":null,"name_bn":null,"name_de":null,"name_en":"Cape Olyutorsky","name_es":null,"name_fr":"Cap Olioutorski","name_el":null,"name_hi":null,"name_hu":null,"name_id":null,"name_it":null,"name_ja":null,"name_ko":null,"name_nl":"Kaap Oljoetorski","name_pl":"Przylądek Olutorski","name_pt":null,"name_ru":"Олюторский","name_sv":null,"name_tr":null,"name_vi":null,"name_zh":null,"wikidataid":"Q3463471","wdid_score":5,"ne_id":1159104949},"bbox":[170.312877,59.960822,170.312877,59.960822],"geometry":{"type":"Point","coordinates":[170.312877,59.960822]}},{"type":"Feature","properties":{"scalerank":5,"featurecla":"cape","name":"Cape Navarin","comment":null,"name_alt":null,"lat_y":62.327239,"long_x":179.074225,"region":"Asia","subregion":null,"min_zoom":6,"label":"Cape Navarin","name_ar":null,"name_bn":null,"name_de":null,"name_en":null,"name_es":null,"name_fr":null,"name_el":"Ακρωτήριο Ναυαρίνου","name_hi":null,"name_hu":null,"name_id":null,"name_it":"Capo Navarin","name_ja":null,"name_ko":null,"name_nl":"Capo Navarin","name_pl":"Przylądek Nawarin","name_pt":null,"name_ru":"Наварин","name_sv":null,"name_tr":null,"name_vi":null,"name_zh":null,"wikidataid":"Q3562501","wdid_score":5,"ne_id":1159104953},"bbox":[179.074229,62.327277,179.074229,62.327277],"geometry":{"type":"Point","coordinates":[179.074229,62.327277]}},{"type":"Feature","properties":{"scalerank":5,"featurecla":"cape","name":"Cape Lopatka","comment":null,"name_alt":null,"lat_y":71.907853,"long_x":150.066042,"region":"Asia","subregion":null,"min_zoom":6,"label":"Cape Lopatka","name_ar":null,"name_bn":null,"name_de":null,"name_en":"Cape Lopatka","name_es":"Cabo Lopatka","name_fr":"Cap Lopatka","name_el":null,"name_hi":null,"name_hu":null,"name_id":null,"name_it":"capo Lopatka","name_ja":"ロパートカ岬","name_ko":"로팟카 곶","name_nl":"Kaap Lopatka","name_pl":"Łopatka","name_pt":"Cabo Lopatka","name_ru":"Лопатка","name_sv":null,"name_tr":null,"name_vi":null,"name_zh":"洛帕特卡角","wikidataid":"Q1199044","wdid_score":3,"ne_id":1159104955},"bbox":[150.065929,71.907782,150.065929,71.907782],"geometry":{"type":"Point","coordinates":[150.065929,71.907782]}},{"type":"Feature","properties":{"scalerank":5,"featurecla":"cape","name":"Cape Ince","comment":null,"name_alt":null,"lat_y":42.084312,"long_x":34.983358,"region":"Asia","subregion":null,"min_zoom":6,"label":null,"name_ar":null,"name_bn":null,"name_de":null,"name_en":null,"name_es":null,"name_fr":null,"name_el":null,"name_hi":null,"name_hu":null,"name_id":null,"name_it":null,"name_ja":null,"name_ko":null,"name_nl":null,"name_pl":null,"name_pt":null,"name_ru":null,"name_sv":null,"name_tr":null,"name_vi":null,"name_zh":null,"wikidataid":null,"wdid_score":0,"ne_id":1159104957},"bbox":[34.983287,42.084174,34.983287,42.084174],"geometry":{"type":"Point","coordinates":[34.983287,42.084174]}},{"type":"Feature","properties":{"scalerank":5,"featurecla":"cape","name":"Ra’s Fartak","comment":null,"name_alt":null,"lat_y":15.677412,"long_x":52.229105,"region":"Asia","subregion":null,"min_zoom":6,"label":null,"name_ar":null,"name_bn":null,"name_de":null,"name_en":null,"name_es":null,"name_fr":null,"name_el":null,"name_hi":null,"name_hu":null,"name_id":null,"name_it":null,"name_ja":null,"name_ko":null,"name_nl":null,"name_pl":null,"name_pt":null,"name_ru":null,"name_sv":null,"name_tr":null,"name_vi":null,"name_zh":null,"wikidataid":null,"wdid_score":0,"ne_id":1159104959},"bbox":[52.23897,15.657952,52.23897,15.657952],"geometry":{"type":"Point","coordinates":[52.23897,15.657952]}},{"type":"Feature","properties":{"scalerank":5,"featurecla":"cape","name":"Ras Sharbatat","comment":null,"name_alt":null,"lat_y":18.164534,"long_x":56.56827,"region":"Asia","subregion":null,"min_zoom":6,"label":null,"name_ar":null,"name_bn":null,"name_de":null,"name_en":null,"name_es":null,"name_fr":null,"name_el":null,"name_hi":null,"name_hu":null,"name_id":null,"name_it":null,"name_ja":null,"name_ko":null,"name_nl":null,"name_pl":null,"name_pt":null,"name_ru":null,"name_sv":null,"name_tr":null,"name_vi":null,"name_zh":null,"wikidataid":null,"wdid_score":0,"ne_id":1159104961},"bbox":[56.558166,18.166986,56.558166,18.166986],"geometry":{"type":"Point","coordinates":[56.558166,18.166986]}},{"type":"Feature","properties":{"scalerank":5,"featurecla":"cape","name":"Ra's al Had","comment":null,"name_alt":null,"lat_y":22.530158,"long_x":59.849134,"region":"Asia","subregion":null,"min_zoom":6,"label":"Ra's al Had","name_ar":"رأس الحد","name_bn":null,"name_de":"Ras al-Hadd","name_en":"Ras al Hadd","name_es":null,"name_fr":"Ras al Hadd","name_el":null,"name_hi":null,"name_hu":null,"name_id":null,"name_it":null,"name_ja":"ラス・アル・ハッド","name_ko":null,"name_nl":null,"name_pl":null,"name_pt":null,"name_ru":null,"name_sv":null,"name_tr":null,"name_vi":null,"name_zh":"拉斯阿爾哈德","wikidataid":"Q1329208","wdid_score":5,"ne_id":1159104963},"bbox":[59.799517,22.518675,59.799517,22.518675],"geometry":{"type":"Point","coordinates":[59.799517,22.518675]}},{"type":"Feature","properties":{"scalerank":5,"featurecla":"island","name":"Hachijō-jima","comment":null,"name_alt":null,"lat_y":33.109796,"long_x":139.804903,"region":"Asia","subregion":null,"min_zoom":6,"label":"Hachijō-jima","name_ar":null,"name_bn":null,"name_de":"Hachijō-jima","name_en":"Hachijō-jima","name_es":"Hachijōjima","name_fr":"Hachijō-jima","name_el":null,"name_hi":null,"name_hu":null,"name_id":null,"name_it":"Hachijō-jima","name_ja":"八丈島","name_ko":"하치조 섬","name_nl":"Hachijojima","name_pl":null,"name_pt":null,"name_ru":"Хатидзёдзима","name_sv":"Hachijō-jima","name_tr":"Hachijōjima","name_vi":null,"name_zh":"八丈島","wikidataid":"Q1191120","wdid_score":5,"ne_id":1159104965},"bbox":[139.80482,33.109809,139.80482,33.109809],"geometry":{"type":"Point","coordinates":[139.80482,33.109809]}},{"type":"Feature","properties":{"scalerank":5,"featurecla":"cape","name":"Nordkapp","comment":null,"name_alt":null,"lat_y":71.18337,"long_x":25.662398,"region":"Europe","subregion":null,"min_zoom":6,"label":"Nordkapp","name_ar":"رأس الشمال النرويجي","name_bn":null,"name_de":"Nordkap","name_en":"North Cape","name_es":"Cabo Norte","name_fr":"Cap Nord","name_el":"Βόρειο Ακρωτήριο","name_hi":null,"name_hu":"Északi-fok","name_id":null,"name_it":"Capo Nord","name_ja":"ノールカップ","name_ko":null,"name_nl":"Noordkaap","name_pl":"Przylądek Północny","name_pt":"Cabo Norte","name_ru":"Нордкап","name_sv":"Nordkap","name_tr":null,"name_vi":null,"name_zh":"北角","wikidataid":"Q4069","wdid_score":5,"ne_id":1159104971},"bbox":[25.660675,71.154502,25.660675,71.154502],"geometry":{"type":"Point","coordinates":[25.660675,71.154502]}},{"type":"Feature","properties":{"scalerank":5,"featurecla":"cape","name":"Cabo de São Vicentete","comment":null,"name_alt":null,"lat_y":37.038304,"long_x":-8.969391,"region":"Europe","subregion":null,"min_zoom":6,"label":"Cabo de São Vicentete","name_ar":null,"name_bn":null,"name_de":"Cabo de São Vicente","name_en":"Cape St. Vincent","name_es":"Cabo de San Vicente","name_fr":"Cap Saint-Vincent","name_el":null,"name_hi":null,"name_hu":null,"name_id":null,"name_it":"Cabo de São Vicente","name_ja":"サン・ヴィセンテ岬","name_ko":null,"name_nl":"Kaap Sint-Vincent","name_pl":"Przylądek Świętego Wincentego","name_pt":"Cabo de São Vicente","name_ru":"Сан-Висенте","name_sv":"Kap Sankt Vincent","name_tr":"Cabo de São Vicente","name_vi":null,"name_zh":"圣维森特角","wikidataid":"Q4103","wdid_score":5,"ne_id":1159104973},"bbox":[-8.969411,37.038275,-8.969411,37.038275],"geometry":{"type":"Point","coordinates":[-8.969411,37.038275]}},{"type":"Feature","properties":{"scalerank":5,"featurecla":"cape","name":"Cabo Fisterra","comment":null,"name_alt":null,"lat_y":42.952418,"long_x":-9.267837,"region":"Europe","subregion":null,"min_zoom":6,"label":"Cabo Fisterra","name_ar":null,"name_bn":null,"name_de":"Kap Finisterre","name_en":"Cape Finisterre","name_es":"Cabo Finisterre","name_fr":"Cap Finisterre","name_el":null,"name_hi":null,"name_hu":null,"name_id":null,"name_it":"Cabo Fisterra","name_ja":"フィニステレ岬","name_ko":null,"name_nl":"Cabo Finisterre","name_pl":"Cabo Fisterra","name_pt":"Cabo Finisterra","name_ru":"Финистерре","name_sv":"Kap Finisterre","name_tr":null,"name_vi":null,"name_zh":null,"wikidataid":"Q1136198","wdid_score":5,"ne_id":1159104975},"bbox":[-9.269963,42.928736,-9.269963,42.928736],"geometry":{"type":"Point","coordinates":[-9.269963,42.928736]}},{"type":"Feature","properties":{"scalerank":5,"featurecla":"cape","name":"Cape San Blas","comment":null,"name_alt":null,"lat_y":29.713967,"long_x":-85.270961,"region":"North America","subregion":null,"min_zoom":6,"label":"Cape San Blas","name_ar":null,"name_bn":null,"name_de":null,"name_en":"Cape San Blas","name_es":null,"name_fr":null,"name_el":null,"name_hi":null,"name_hu":null,"name_id":null,"name_it":null,"name_ja":null,"name_ko":null,"name_nl":null,"name_pl":null,"name_pt":null,"name_ru":null,"name_sv":null,"name_tr":null,"name_vi":null,"name_zh":null,"wikidataid":"Q5035028","wdid_score":3,"ne_id":1159104977},"bbox":[-85.270924,29.713996,-85.270924,29.713996],"geometry":{"type":"Point","coordinates":[-85.270924,29.713996]}},{"type":"Feature","properties":{"scalerank":5,"featurecla":"cape","name":"Cape Sable","comment":null,"name_alt":null,"lat_y":43.469097,"long_x":-65.610769,"region":"North America","subregion":null,"min_zoom":6,"label":"Cape Sable","name_ar":null,"name_bn":null,"name_de":null,"name_en":null,"name_es":null,"name_fr":null,"name_el":null,"name_hi":null,"name_hu":null,"name_id":null,"name_it":null,"name_ja":null,"name_ko":null,"name_nl":null,"name_pl":null,"name_pt":null,"name_ru":null,"name_sv":null,"name_tr":null,"name_vi":null,"name_zh":null,"wikidataid":null,"wdid_score":0,"ne_id":1159104979},"bbox":[-65.610829,43.469001,-65.610829,43.469001],"geometry":{"type":"Point","coordinates":[-65.610829,43.469001]}},{"type":"Feature","properties":{"scalerank":5,"featurecla":"cape","name":"Cape Bauld","comment":null,"name_alt":null,"lat_y":51.568576,"long_x":-55.430306,"region":"North America","subregion":null,"min_zoom":6,"label":null,"name_ar":null,"name_bn":null,"name_de":null,"name_en":null,"name_es":null,"name_fr":null,"name_el":null,"name_hi":null,"name_hu":null,"name_id":null,"name_it":null,"name_ja":null,"name_ko":null,"name_nl":null,"name_pl":null,"name_pt":null,"name_ru":null,"name_sv":null,"name_tr":null,"name_vi":null,"name_zh":null,"wikidataid":null,"wdid_score":0,"ne_id":1159104981},"bbox":[-55.430287,51.568488,-55.430287,51.568488],"geometry":{"type":"Point","coordinates":[-55.430287,51.568488]}},{"type":"Feature","properties":{"scalerank":5,"featurecla":"cape","name":"Cape Fear","comment":null,"name_alt":null,"lat_y":33.867949,"long_x":-77.990568,"region":"North America","subregion":null,"min_zoom":6,"label":"Cape Fear","name_ar":null,"name_bn":null,"name_de":"Cape Fear","name_en":"Cape Fear","name_es":"Cape Fear","name_fr":"Cape Fear","name_el":null,"name_hi":null,"name_hu":null,"name_id":null,"name_it":null,"name_ja":"ケープフェア","name_ko":null,"name_nl":null,"name_pl":null,"name_pt":"Cabo Fear","name_ru":"Кейп-Фир","name_sv":null,"name_tr":null,"name_vi":null,"name_zh":null,"wikidataid":"Q1034413","wdid_score":3,"ne_id":1159104983},"bbox":[-77.99059,33.867987,-77.99059,33.867987],"geometry":{"type":"Point","coordinates":[-77.99059,33.867987]}},{"type":"Feature","properties":{"scalerank":5,"featurecla":"island","name":"I. Guadalupe","comment":null,"name_alt":null,"lat_y":29.052552,"long_x":-118.317465,"region":"Seven seas (open ocean)","subregion":"North Pacific Ocean","min_zoom":6,"label":"I. Guadalupe","name_ar":"جزيرة غوادالوبي","name_bn":null,"name_de":"Guadalupe","name_en":"Guadalupe Island","name_es":"Isla Guadalupe","name_fr":"île Guadalupe","name_el":"Νήσος Γουαδαλούπη","name_hi":null,"name_hu":null,"name_id":null,"name_it":"Guadalupe","name_ja":"グアダルーペ島","name_ko":"과달루페 섬","name_nl":"Isla Guadalupe","name_pl":"Guadalupe","name_pt":"Ilha de Guadalupe","name_ru":"Гуадалупе","name_sv":"Guadalupeön","name_tr":null,"name_vi":"Đảo Guadalupe","name_zh":"瓜達盧普島","wikidataid":"Q853909","wdid_score":5,"ne_id":1159104985},"bbox":[-118.317494,29.052497,-118.317494,29.052497],"geometry":{"type":"Point","coordinates":[-118.317494,29.052497]}},{"type":"Feature","properties":{"scalerank":5,"featurecla":"island","name":"Miquelon","comment":null,"name_alt":null,"lat_y":46.929526,"long_x":-56.329884,"region":"North America","subregion":null,"min_zoom":6,"label":"Miquelon","name_ar":null,"name_bn":null,"name_de":null,"name_en":"Miquelon","name_es":"Isla de Miquelón","name_fr":"Miquelon","name_el":null,"name_hi":null,"name_hu":null,"name_id":null,"name_it":null,"name_ja":null,"name_ko":null,"name_nl":null,"name_pl":null,"name_pt":null,"name_ru":"Микелон","name_sv":null,"name_tr":null,"name_vi":null,"name_zh":null,"wikidataid":"Q15076349","wdid_score":3,"ne_id":1159104989},"bbox":[-56.329884,46.929389,-56.329884,46.929389],"geometry":{"type":"Point","coordinates":[-56.329884,46.929389]}},{"type":"Feature","properties":{"scalerank":5,"featurecla":"island","name":"I. Robinson Crusoe","comment":null,"name_alt":null,"lat_y":-33.589852,"long_x":-78.872522,"region":"Seven seas (open ocean)","subregion":"South Pacific Ocean","min_zoom":6,"label":"I. Robinson Crusoe","name_ar":"جزيرة روبنسون كروزو","name_bn":null,"name_de":"Robinsón Crusoe","name_en":"Robinson Crusoe Island","name_es":"Isla Robinson Crusoe","name_fr":"île Robinson Crusoe","name_el":null,"name_hi":null,"name_hu":"Robinson Crusoe sziget","name_id":"Pulau Robinson Crusoe","name_it":"Isola di Robinson Crusoe","name_ja":"ロビンソン・クルーソー島","name_ko":"로빈슨크루소 섬","name_nl":"Robinson Crusoe","name_pl":"Robinson Crusoe","name_pt":"Ilha Robinson Crusoe","name_ru":"Остров Робинзона Крузо","name_sv":"Robinson Crusoe-ön","name_tr":"Robinson Crusoe Adası","name_vi":null,"name_zh":"魯賓遜克魯索島","wikidataid":"Q329422","wdid_score":5,"ne_id":1159105027},"bbox":[-78.872548,-33.589654,-78.872548,-33.589654],"geometry":{"type":"Point","coordinates":[-78.872548,-33.589654]}},{"type":"Feature","properties":{"scalerank":5,"featurecla":"cape","name":"Cabo Orange","comment":null,"name_alt":null,"lat_y":4.125735,"long_x":-51.242144,"region":"South America","subregion":null,"min_zoom":6,"label":"Cabo Orange","name_ar":null,"name_bn":null,"name_de":null,"name_en":"Cape Orange","name_es":"Cabo Orange","name_fr":"Cap Orange","name_el":null,"name_hi":null,"name_hu":null,"name_id":null,"name_it":null,"name_ja":null,"name_ko":null,"name_nl":null,"name_pl":null,"name_pt":"Cabo Orange","name_ru":null,"name_sv":null,"name_tr":null,"name_vi":null,"name_zh":null,"wikidataid":"Q963259","wdid_score":5,"ne_id":1159105029},"bbox":[-51.262878,4.135614,-51.262878,4.135614],"geometry":{"type":"Point","coordinates":[-51.262878,4.135614]}},{"type":"Feature","properties":{"scalerank":5,"featurecla":"cape","name":"Cabo de Santa Marta Grande","comment":null,"name_alt":null,"lat_y":-28.558078,"long_x":-48.735526,"region":"South America","subregion":null,"min_zoom":6,"label":null,"name_ar":null,"name_bn":null,"name_de":null,"name_en":null,"name_es":null,"name_fr":null,"name_el":null,"name_hi":null,"name_hu":null,"name_id":null,"name_it":null,"name_ja":null,"name_ko":null,"name_nl":null,"name_pl":null,"name_pt":null,"name_ru":null,"name_sv":null,"name_tr":null,"name_vi":null,"name_zh":null,"wikidataid":null,"wdid_score":0,"ne_id":1159105031},"bbox":[-48.80338,-28.571983,-48.80338,-28.571983],"geometry":{"type":"Point","coordinates":[-48.80338,-28.571983]}},{"type":"Feature","properties":{"scalerank":5,"featurecla":"cape","name":"Punta del Este","comment":null,"name_alt":null,"lat_y":-34.975503,"long_x":-54.933154,"region":"South America","subregion":null,"min_zoom":6,"label":null,"name_ar":null,"name_bn":null,"name_de":null,"name_en":null,"name_es":null,"name_fr":null,"name_el":null,"name_hi":null,"name_hu":null,"name_id":null,"name_it":null,"name_ja":null,"name_ko":null,"name_nl":null,"name_pl":null,"name_pt":null,"name_ru":null,"name_sv":null,"name_tr":null,"name_vi":null,"name_zh":null,"wikidataid":null,"wdid_score":0,"ne_id":1159105033},"bbox":[-54.946288,-34.966587,-54.946288,-34.966587],"geometry":{"type":"Point","coordinates":[-54.946288,-34.966587]}},{"type":"Feature","properties":{"scalerank":5,"featurecla":"cape","name":"Cabo San Antonio","comment":null,"name_alt":null,"lat_y":-36.381052,"long_x":-56.655377,"region":"South America","subregion":null,"min_zoom":6,"label":null,"name_ar":null,"name_bn":null,"name_de":null,"name_en":null,"name_es":null,"name_fr":null,"name_el":null,"name_hi":null,"name_hu":null,"name_id":null,"name_it":null,"name_ja":null,"name_ko":null,"name_nl":null,"name_pl":null,"name_pt":null,"name_ru":null,"name_sv":null,"name_tr":null,"name_vi":null,"name_zh":null,"wikidataid":null,"wdid_score":0,"ne_id":1159105035},"bbox":[-56.716792,-36.409599,-56.716792,-36.409599],"geometry":{"type":"Point","coordinates":[-56.716792,-36.409599]}},{"type":"Feature","properties":{"scalerank":5,"featurecla":"cape","name":"Cabo Corrientes","comment":null,"name_alt":null,"lat_y":-38.135985,"long_x":-57.546212,"region":"South America","subregion":null,"min_zoom":6,"label":null,"name_ar":null,"name_bn":null,"name_de":null,"name_en":null,"name_es":null,"name_fr":null,"name_el":null,"name_hi":null,"name_hu":null,"name_id":null,"name_it":null,"name_ja":null,"name_ko":null,"name_nl":null,"name_pl":null,"name_pt":null,"name_ru":null,"name_sv":null,"name_tr":null,"name_vi":null,"name_zh":null,"wikidataid":null,"wdid_score":0,"ne_id":1159105037},"bbox":[-57.562523,-38.066377,-57.562523,-38.066377],"geometry":{"type":"Point","coordinates":[-57.562523,-38.066377]}},{"type":"Feature","properties":{"scalerank":5,"featurecla":"cape","name":"Punta Rasa","comment":null,"name_alt":null,"lat_y":-40.834718,"long_x":-62.282201,"region":"South America","subregion":null,"min_zoom":6,"label":null,"name_ar":null,"name_bn":null,"name_de":null,"name_en":null,"name_es":null,"name_fr":null,"name_el":null,"name_hi":null,"name_hu":null,"name_id":null,"name_it":null,"name_ja":null,"name_ko":null,"name_nl":null,"name_pl":null,"name_pt":null,"name_ru":null,"name_sv":null,"name_tr":null,"name_vi":null,"name_zh":null,"wikidataid":null,"wdid_score":0,"ne_id":1159105039},"bbox":[-62.259117,-40.726264,-62.259117,-40.726264],"geometry":{"type":"Point","coordinates":[-62.259117,-40.726264]}},{"type":"Feature","properties":{"scalerank":5,"featurecla":"cape","name":"Cabo Dos Bahías","comment":null,"name_alt":null,"lat_y":-44.9887,"long_x":-65.615952,"region":"South America","subregion":null,"min_zoom":6,"label":null,"name_ar":null,"name_bn":null,"name_de":null,"name_en":null,"name_es":null,"name_fr":null,"name_el":null,"name_hi":null,"name_hu":null,"name_id":null,"name_it":null,"name_ja":null,"name_ko":null,"name_nl":null,"name_pl":null,"name_pt":null,"name_ru":null,"name_sv":null,"name_tr":null,"name_vi":null,"name_zh":null,"wikidataid":null,"wdid_score":0,"ne_id":1159105043},"bbox":[-65.543833,-44.894398,-65.543833,-44.894398],"geometry":{"type":"Point","coordinates":[-65.543833,-44.894398]}},{"type":"Feature","properties":{"scalerank":5,"featurecla":"cape","name":"Cabo Delgado","comment":null,"name_alt":null,"lat_y":-10.670103,"long_x":40.624309,"region":"Africa","subregion":null,"min_zoom":6,"label":"Cabo Delgado","name_ar":null,"name_bn":null,"name_de":"Kap Delgado","name_en":"Cape Delgado","name_es":null,"name_fr":"Cap Delgado","name_el":null,"name_hi":null,"name_hu":null,"name_id":null,"name_it":"Capo Delgado","name_ja":"デルガド岬","name_ko":null,"name_nl":"Cape Delgado","name_pl":null,"name_pt":"Cabo Delgado","name_ru":null,"name_sv":null,"name_tr":null,"name_vi":null,"name_zh":"德尔加杜角","wikidataid":"Q1728307","wdid_score":5,"ne_id":1159105111},"bbox":[40.6244,-10.670099,40.6244,-10.670099],"geometry":{"type":"Point","coordinates":[40.6244,-10.670099]}},{"type":"Feature","properties":{"scalerank":5,"featurecla":"cape","name":"Ponta da Barra","comment":null,"name_alt":null,"lat_y":-23.829888,"long_x":35.515696,"region":"Africa","subregion":null,"min_zoom":6,"label":null,"name_ar":null,"name_bn":null,"name_de":null,"name_en":null,"name_es":null,"name_fr":null,"name_el":null,"name_hi":null,"name_hu":null,"name_id":null,"name_it":null,"name_ja":null,"name_ko":null,"name_nl":null,"name_pl":null,"name_pt":null,"name_ru":null,"name_sv":null,"name_tr":null,"name_vi":null,"name_zh":null,"wikidataid":null,"wdid_score":0,"ne_id":1159105115},"bbox":[35.515636,-23.830011,35.515636,-23.830011],"geometry":{"type":"Point","coordinates":[35.515636,-23.830011]}},{"type":"Feature","properties":{"scalerank":5,"featurecla":"cape","name":"Ponta São Sebastio","comment":null,"name_alt":null,"lat_y":-22.118899,"long_x":35.480417,"region":"Africa","subregion":null,"min_zoom":6,"label":null,"name_ar":null,"name_bn":null,"name_de":null,"name_en":null,"name_es":null,"name_fr":null,"name_el":null,"name_hi":null,"name_hu":null,"name_id":null,"name_it":null,"name_ja":null,"name_ko":null,"name_nl":null,"name_pl":null,"name_pt":null,"name_ru":null,"name_sv":null,"name_tr":null,"name_vi":null,"name_zh":null,"wikidataid":null,"wdid_score":0,"ne_id":1159105117},"bbox":[35.480235,-22.118829,35.480235,-22.118829],"geometry":{"type":"Point","coordinates":[35.480235,-22.118829]}},{"type":"Feature","properties":{"scalerank":5,"featurecla":"cape","name":"Ras Cantin","comment":null,"name_alt":null,"lat_y":32.581636,"long_x":-9.273918,"region":"Africa","subregion":null,"min_zoom":6,"label":"Ras Cantin","name_ar":null,"name_bn":null,"name_de":null,"name_en":null,"name_es":null,"name_fr":"Cap Cantin","name_el":null,"name_hi":null,"name_hu":null,"name_id":null,"name_it":null,"name_ja":null,"name_ko":null,"name_nl":null,"name_pl":null,"name_pt":null,"name_ru":null,"name_sv":null,"name_tr":null,"name_vi":null,"name_zh":null,"wikidataid":"Q18214270","wdid_score":5,"ne_id":1159105119},"bbox":[-9.273915,32.58161,-9.273915,32.58161],"geometry":{"type":"Point","coordinates":[-9.273915,32.58161]}},{"type":"Feature","properties":{"scalerank":5,"featurecla":"cape","name":"Ra’s Kasr","comment":null,"name_alt":null,"lat_y":18.076817,"long_x":38.573746,"region":"Africa","subregion":null,"min_zoom":6,"label":null,"name_ar":null,"name_bn":null,"name_de":null,"name_en":null,"name_es":null,"name_fr":null,"name_el":null,"name_hi":null,"name_hu":null,"name_id":null,"name_it":null,"name_ja":null,"name_ko":null,"name_nl":null,"name_pl":null,"name_pt":null,"name_ru":null,"name_sv":null,"name_tr":null,"name_vi":null,"name_zh":null,"wikidataid":null,"wdid_score":0,"ne_id":1159105121},"bbox":[38.580277,18.075168,38.580277,18.075168],"geometry":{"type":"Point","coordinates":[38.580277,18.075168]}},{"type":"Feature","properties":{"scalerank":5,"featurecla":"cape","name":"Ponta de Jericoacoara","comment":null,"name_alt":null,"lat_y":-2.85044,"long_x":-40.067208,"region":"South America","subregion":null,"min_zoom":6,"label":null,"name_ar":null,"name_bn":null,"name_de":null,"name_en":null,"name_es":null,"name_fr":null,"name_el":null,"name_hi":null,"name_hu":null,"name_id":null,"name_it":null,"name_ja":null,"name_ko":null,"name_nl":null,"name_pl":null,"name_pt":null,"name_ru":null,"name_sv":null,"name_tr":null,"name_vi":null,"name_zh":null,"wikidataid":null,"wdid_score":0,"ne_id":1159105123},"bbox":[-39.99165,-2.851823,-39.99165,-2.851823],"geometry":{"type":"Point","coordinates":[-39.99165,-2.851823]}},{"type":"Feature","properties":{"scalerank":5,"featurecla":"cape","name":"Cabo de São Roque","comment":null,"name_alt":null,"lat_y":-5.193476,"long_x":-35.447654,"region":"South America","subregion":null,"min_zoom":6,"label":"Cabo de São Roque","name_ar":null,"name_bn":null,"name_de":"Rochuskap","name_en":"Cape São Roque","name_es":"Cabo de São Roque","name_fr":"Cap Saint Roque","name_el":null,"name_hi":null,"name_hu":null,"name_id":null,"name_it":"Capo San Rocco","name_ja":null,"name_ko":null,"name_nl":"Cape São Roque","name_pl":"São Roque","name_pt":"Cabo de São Roque","name_ru":null,"name_sv":"Cabo de São Roque","name_tr":null,"name_vi":null,"name_zh":"聖洛克岬","wikidataid":"Q2535130","wdid_score":5,"ne_id":1159105125},"bbox":[-35.509949,-5.156866,-35.509949,-5.156866],"geometry":{"type":"Point","coordinates":[-35.509949,-5.156866]}},{"type":"Feature","properties":{"scalerank":5,"featurecla":"cape","name":"Ponta da Baleia","comment":null,"name_alt":null,"lat_y":-17.710136,"long_x":-39.157619,"region":"South America","subregion":null,"min_zoom":6,"label":null,"name_ar":null,"name_bn":null,"name_de":null,"name_en":null,"name_es":null,"name_fr":null,"name_el":null,"name_hi":null,"name_hu":null,"name_id":null,"name_it":null,"name_ja":null,"name_ko":null,"name_nl":null,"name_pl":null,"name_pt":null,"name_ru":null,"name_sv":null,"name_tr":null,"name_vi":null,"name_zh":null,"wikidataid":null,"wdid_score":0,"ne_id":1159105127},"bbox":[-39.145579,-17.678754,-39.145579,-17.678754],"geometry":{"type":"Point","coordinates":[-39.145579,-17.678754]}},{"type":"Feature","properties":{"scalerank":5,"featurecla":"cape","name":"Cabo de São Tomé","comment":null,"name_alt":null,"lat_y":-21.996382,"long_x":-41.009692,"region":"South America","subregion":null,"min_zoom":6,"label":"Cabo de São Tomé","name_ar":null,"name_bn":null,"name_de":null,"name_en":"Cabo de São Tomé","name_es":"Cabo de São Tomé","name_fr":null,"name_el":null,"name_hi":null,"name_hu":null,"name_id":null,"name_it":null,"name_ja":null,"name_ko":null,"name_nl":null,"name_pl":"Cabo de São Tomé","name_pt":"Cabo de São Tomé","name_ru":null,"name_sv":"Cabo de São Tomé","name_tr":null,"name_vi":null,"name_zh":"圣多美角","wikidataid":"Q8254538","wdid_score":5,"ne_id":1159105129},"bbox":[-40.98764,-21.971755,-40.98764,-21.971755],"geometry":{"type":"Point","coordinates":[-40.98764,-21.971755]}},{"type":"Feature","properties":{"scalerank":5,"featurecla":"cape","name":"Cabo Frio","comment":null,"name_alt":null,"lat_y":-22.869501,"long_x":-41.962188,"region":"South America","subregion":null,"min_zoom":6,"label":"Cabo Frio","name_ar":null,"name_bn":null,"name_de":null,"name_en":null,"name_es":null,"name_fr":null,"name_el":null,"name_hi":null,"name_hu":null,"name_id":null,"name_it":null,"name_ja":null,"name_ko":null,"name_nl":null,"name_pl":null,"name_pt":null,"name_ru":null,"name_sv":null,"name_tr":null,"name_vi":null,"name_zh":null,"wikidataid":null,"wdid_score":0,"ne_id":1159105133},"bbox":[-41.890156,-22.759731,-41.890156,-22.759731],"geometry":{"type":"Point","coordinates":[-41.890156,-22.759731]}},{"type":"Feature","properties":{"scalerank":5,"featurecla":"cape","name":"Cabo San Diego","comment":null,"name_alt":null,"lat_y":-54.6406,"long_x":-65.21365,"region":"South America","subregion":null,"min_zoom":6,"label":"Cabo San Diego","name_ar":null,"name_bn":null,"name_de":null,"name_en":null,"name_es":"Cabo San Diego","name_fr":"Cap San Diego","name_el":null,"name_hi":null,"name_hu":null,"name_id":null,"name_it":null,"name_ja":null,"name_ko":null,"name_nl":null,"name_pl":null,"name_pt":null,"name_ru":null,"name_sv":null,"name_tr":null,"name_vi":null,"name_zh":null,"wikidataid":"Q5738394","wdid_score":3,"ne_id":1159105135},"bbox":[-65.213612,-54.64068,-65.213612,-54.64068],"geometry":{"type":"Point","coordinates":[-65.213612,-54.64068]}},{"type":"Feature","properties":{"scalerank":5,"featurecla":"cape","name":"Cabo Tres Puntas","comment":null,"name_alt":null,"lat_y":-47.237629,"long_x":-65.774707,"region":"South America","subregion":null,"min_zoom":6,"label":null,"name_ar":null,"name_bn":null,"name_de":null,"name_en":null,"name_es":null,"name_fr":null,"name_el":null,"name_hi":null,"name_hu":null,"name_id":null,"name_it":null,"name_ja":null,"name_ko":null,"name_nl":null,"name_pl":null,"name_pt":null,"name_ru":null,"name_sv":null,"name_tr":null,"name_vi":null,"name_zh":null,"wikidataid":null,"wdid_score":0,"ne_id":1159105137},"bbox":[-65.744398,-47.328779,-65.744398,-47.328779],"geometry":{"type":"Point","coordinates":[-65.744398,-47.328779]}},{"type":"Feature","properties":{"scalerank":5,"featurecla":"cape","name":"Cap Saint André","comment":null,"name_alt":null,"lat_y":-16.174457,"long_x":44.467405,"region":"Africa","subregion":null,"min_zoom":6,"label":"Cap Saint André","name_ar":null,"name_bn":null,"name_de":null,"name_en":null,"name_es":null,"name_fr":"cap Saint-André","name_el":null,"name_hi":null,"name_hu":null,"name_id":null,"name_it":null,"name_ja":null,"name_ko":null,"name_nl":null,"name_pl":null,"name_pt":null,"name_ru":null,"name_sv":null,"name_tr":null,"name_vi":null,"name_zh":null,"wikidataid":"Q2937092","wdid_score":5,"ne_id":1159105139},"bbox":[44.467296,-16.174493,44.467296,-16.174493],"geometry":{"type":"Point","coordinates":[44.467296,-16.174493]}},{"type":"Feature","properties":{"scalerank":5,"featurecla":"cape","name":"Cape St. Lucia","comment":null,"name_alt":null,"lat_y":-28.552694,"long_x":32.367221,"region":"Africa","subregion":null,"min_zoom":6,"label":null,"name_ar":null,"name_bn":null,"name_de":null,"name_en":null,"name_es":null,"name_fr":null,"name_el":null,"name_hi":null,"name_hu":null,"name_id":null,"name_it":null,"name_ja":null,"name_ko":null,"name_nl":null,"name_pl":null,"name_pt":null,"name_ru":null,"name_sv":null,"name_tr":null,"name_vi":null,"name_zh":null,"wikidataid":null,"wdid_score":0,"ne_id":1159105141},"bbox":[32.36732,-28.552667,32.36732,-28.552667],"geometry":{"type":"Point","coordinates":[32.36732,-28.552667]}},{"type":"Feature","properties":{"scalerank":5,"featurecla":"cape","name":"Cape St. Francis","comment":null,"name_alt":null,"lat_y":-34.171766,"long_x":24.817688,"region":"Africa","subregion":null,"min_zoom":6,"label":null,"name_ar":null,"name_bn":null,"name_de":null,"name_en":null,"name_es":null,"name_fr":null,"name_el":null,"name_hi":null,"name_hu":null,"name_id":null,"name_it":null,"name_ja":null,"name_ko":null,"name_nl":null,"name_pl":null,"name_pt":null,"name_ru":null,"name_sv":null,"name_tr":null,"name_vi":null,"name_zh":null,"wikidataid":null,"wdid_score":0,"ne_id":1159105143},"bbox":[24.841436,-34.18861,24.841436,-34.18861],"geometry":{"type":"Point","coordinates":[24.841436,-34.18861]}},{"type":"Feature","properties":{"scalerank":5,"featurecla":"island","name":"Minamitori-shima","comment":null,"name_alt":"Marcus I.","lat_y":24.319813,"long_x":153.958899,"region":"Seven seas (open ocean)","subregion":"North Pacific Ocean","min_zoom":6,"label":"Minamitori-shima","name_ar":null,"name_bn":null,"name_de":"Minami-Torishima","name_en":"Minamitorishima","name_es":"Minami Torishima","name_fr":"île Minamitori","name_el":null,"name_hi":null,"name_hu":null,"name_id":null,"name_it":"Minami Torishima","name_ja":"南鳥島","name_ko":"미나미토리 섬","name_nl":"Minamitorishima","name_pl":"Minami Tori-shima","name_pt":"Minamitorishima","name_ru":"Минамитори","name_sv":"Minami-Torishima","name_tr":"Minami Torishima","name_vi":"Minamitorishima","name_zh":"南鸟岛","wikidataid":"Q1047492","wdid_score":5,"ne_id":1159105145},"bbox":[153.958873,24.31977,153.958873,24.31977],"geometry":{"type":"Point","coordinates":[153.958873,24.31977]}},{"type":"Feature","properties":{"scalerank":5,"featurecla":"island","name":"Islas de Martín Vaz","comment":null,"name_alt":null,"lat_y":-20.559422,"long_x":-29.338439,"region":"Seven seas (open ocean)","subregion":"Southern Atlantic Ocean","min_zoom":6,"label":"Is. Martín Vaz","name_ar":null,"name_bn":null,"name_de":null,"name_en":"Islas de Martín Vaz","name_es":"Islas de Martín Vaz","name_fr":null,"name_el":null,"name_hi":null,"name_hu":null,"name_id":null,"name_it":null,"name_ja":null,"name_ko":null,"name_nl":null,"name_pl":null,"name_pt":null,"name_ru":null,"name_sv":null,"name_tr":null,"name_vi":null,"name_zh":null,"wikidataid":"Q17505593","wdid_score":3,"ne_id":1159105147},"bbox":[-29.338429,-20.559503,-29.338429,-20.559503],"geometry":{"type":"Point","coordinates":[-29.338429,-20.559503]}},{"type":"Feature","properties":{"scalerank":5,"featurecla":"island","name":"Rockall","comment":null,"name_alt":null,"lat_y":58.163524,"long_x":-12.408715,"region":"Seven seas (open ocean)","subregion":"North Atlantic Ocean","min_zoom":6,"label":"Rockall","name_ar":null,"name_bn":null,"name_de":"Rockall","name_en":"Rockall","name_es":"Rockall","name_fr":"Rockall","name_el":null,"name_hi":null,"name_hu":"Rockall","name_id":"Rockall","name_it":"Rockall","name_ja":"ロッコール島","name_ko":"로칼 섬","name_nl":"Rockall","name_pl":"Rockall","name_pt":"Rockall","name_ru":"Роколл","name_sv":"Rockall","name_tr":"Rockall","name_vi":"Rockall","name_zh":"羅科爾","wikidataid":"Q206137","wdid_score":2,"ne_id":1159105151},"bbox":[-12.408742,58.163398,-12.408742,58.163398],"geometry":{"type":"Point","coordinates":[-12.408742,58.163398]}},{"type":"Feature","properties":{"scalerank":5,"featurecla":"island","name":"I. de Cozumel","comment":null,"name_alt":null,"lat_y":20.444687,"long_x":-86.880555,"region":"North America","subregion":null,"min_zoom":6,"label":"I. de Cozumel","name_ar":"كوزوميل","name_bn":null,"name_de":"Cozumel","name_en":"Cozumel Island","name_es":"Isla Cozumel","name_fr":"Cozumel","name_el":"Κόζουμελ","name_hi":null,"name_hu":"Cozumel","name_id":"Cozumel","name_it":"Cozumel","name_ja":"コズメル","name_ko":null,"name_nl":"Cozumel Island","name_pl":"Cozumel","name_pt":"Cozumel","name_ru":"Косумель","name_sv":"Cozumel","name_tr":null,"name_vi":"Cozumel","name_zh":"科苏梅尔岛","wikidataid":"Q20119933","wdid_score":5,"ne_id":1159105153},"bbox":[-86.880605,20.444709,-86.880605,20.444709],"geometry":{"type":"Point","coordinates":[-86.880605,20.444709]}},{"type":"Feature","properties":{"scalerank":5,"featurecla":"island","name":"Bermuda Islands","comment":null,"name_alt":null,"lat_y":32.317339,"long_x":-64.742895,"region":"Seven seas (open ocean)","subregion":"North Atlantic Ocean","min_zoom":6,"label":null,"name_ar":null,"name_bn":null,"name_de":null,"name_en":null,"name_es":null,"name_fr":null,"name_el":null,"name_hi":null,"name_hu":null,"name_id":null,"name_it":null,"name_ja":null,"name_ko":null,"name_nl":null,"name_pl":null,"name_pt":null,"name_ru":null,"name_sv":null,"name_tr":null,"name_vi":null,"name_zh":null,"wikidataid":null,"wdid_score":0,"ne_id":1159105155},"bbox":[-64.742909,32.317267,-64.742909,32.317267],"geometry":{"type":"Point","coordinates":[-64.742909,32.317267]}}],"bbox":[-173.976734992573,-75.5918514953184,179.198374870709,83.6262881531191]}
